<?xml version='1.0' encoding='UTF-8'?>
<osm version="0.6" generator="osmconvert 0.8">
	<bounds minlat="40.4302236" minlon="-3.7133789" maxlat="40.446947" maxlon="-3.6914062"/>
	<node id="-26610" lat="40.4367384" lon="-3.6957245">
		<tag k="addr:housenumber" v="45"/>
		<tag k="addr:postcode" v="28010"/>
		<tag k="addr:street" v="FIXME Calle Garcia De Paredes"/>
		<tag k="amenity" v="place_of_worship"/>
		<tag k="building" v="church"/>
		<tag k="denomination" v="roman_catholic"/>
		<tag k="name" v="Basílica La Milagrosa"/>
		<tag k="religion" v="christian"/>
		<tag k="source" v="Ayuntamiento de Madrid"/>
		<tag k="source:date" v="2013-05-01"/>
		<tag k="url" v="http://www.madrid.es/vgn-ext-templating/v/index.jsp?vgnextchannel=9e4c43db40317010VgnVCM100000dc0ca8c0RCRD&#38;vgnextoid=53b313db5b71c010VgnVCM1000000b205a0aRCRD"/>
	</node>
	<node id="-26666" lat="40.4311028" lon="-3.6950416">
		<tag k="addr:housenumber" v="16"/>
		<tag k="addr:postcode" v="28010"/>
		<tag k="addr:street" v="FIXME Calle Fernandez De La Hoz"/>
		<tag k="amenity" v="place_of_worship"/>
		<tag k="building" v="church"/>
		<tag k="denomination" v="roman_catholic"/>
		<tag k="name" v="Iglesia San José de la Montaña"/>
		<tag k="phone" v="+34 913101600"/>
		<tag k="religion" v="christian"/>
		<tag k="source" v="Ayuntamiento de Madrid"/>
		<tag k="source:date" v="2013-05-01"/>
		<tag k="url" v="http://www.madrid.es/vgn-ext-templating/v/index.jsp?vgnextchannel=9e4c43db40317010VgnVCM100000dc0ca8c0RCRD&#38;vgnextoid=4d638ed67151c010VgnVCM2000000c205a0aRCRD"/>
	</node>
	<node id="-26820" lat="40.4458219" lon="-3.7042495">
		<tag k="addr:housenumber" v="93"/>
		<tag k="addr:postcode" v="28003"/>
		<tag k="addr:street" v="FIXME Calle Bravo Murillo"/>
		<tag k="amenity" v="place_of_worship"/>
		<tag k="building" v="church"/>
		<tag k="denomination" v="roman_catholic"/>
		<tag k="email" v="nsdelosangeles@archimadrid.es"/>
		<tag k="name" v="Parroquia Nuestra Señora de los Ángeles"/>
		<tag k="phone" v="+34 915334343"/>
		<tag k="religion" v="christian"/>
		<tag k="source" v="Ayuntamiento de Madrid"/>
		<tag k="source:date" v="2013-05-01"/>
		<tag k="url" v="http://www.madrid.es/vgn-ext-templating/v/index.jsp?vgnextchannel=9e4c43db40317010VgnVCM100000dc0ca8c0RCRD&#38;vgnextoid=bb4513db5b71c010VgnVCM1000000b205a0aRCRD"/>
	</node>
	<node id="-26826" lat="40.4311569" lon="-3.7054523">
		<tag k="addr:housenumber" v="103"/>
		<tag k="addr:postcode" v="28015"/>
		<tag k="addr:street" v="FIXME Calle San Bernardo"/>
		<tag k="amenity" v="place_of_worship"/>
		<tag k="building" v="church"/>
		<tag k="denomination" v="roman_catholic"/>
		<tag k="email" v="sacristí. parroquia.ntra.sra.de.los.dolores@gmail.com"/>
		<tag k="name" v="Parroquia Nuestra Señora de los Dolores"/>
		<tag k="phone" v="+34 914454922"/>
		<tag k="religion" v="christian"/>
		<tag k="source" v="Ayuntamiento de Madrid"/>
		<tag k="source:date" v="2013-05-01"/>
		<tag k="url" v="http://www.madrid.es/vgn-ext-templating/v/index.jsp?vgnextchannel=9e4c43db40317010VgnVCM100000dc0ca8c0RCRD&#38;vgnextoid=638513db5b71c010VgnVCM1000000b205a0aRCRD"/>
	</node>
	<node id="-26980" lat="40.4368692" lon="-3.7053587">
		<tag k="addr:housenumber" v="39"/>
		<tag k="addr:postcode" v="28015"/>
		<tag k="addr:street" v="FIXME Calle Bravo Murillo"/>
		<tag k="amenity" v="place_of_worship"/>
		<tag k="building" v="church"/>
		<tag k="denomination" v="roman_catholic"/>
		<tag k="name" v="Parroquia San Cristóbal y San Rafael"/>
		<tag k="phone" v="+34 914467366"/>
		<tag k="religion" v="christian"/>
		<tag k="source" v="Ayuntamiento de Madrid"/>
		<tag k="source:date" v="2013-05-01"/>
		<tag k="url" v="http://www.madrid.es/vgn-ext-templating/v/index.jsp?vgnextchannel=9e4c43db40317010VgnVCM100000dc0ca8c0RCRD&#38;vgnextoid=67580713fb71c010VgnVCM1000000b205a0aRCRD"/>
	</node>
	<node id="-27002" lat="40.4327573" lon="-3.692571">
		<tag k="addr:housenumber" v="10"/>
		<tag k="addr:postcode" v="28010"/>
		<tag k="addr:street" v="FIXME Paseo Eduardo Dato"/>
		<tag k="amenity" v="place_of_worship"/>
		<tag k="building" v="church"/>
		<tag k="denomination" v="roman_catholic"/>
		<tag k="name" v="Parroquia San Fermín de los Navarros"/>
		<tag k="phone" v="+34 913197148"/>
		<tag k="religion" v="christian"/>
		<tag k="source" v="Ayuntamiento de Madrid"/>
		<tag k="source:date" v="2013-05-01"/>
		<tag k="url" v="http://www.madrid.es/vgn-ext-templating/v/index.jsp?vgnextchannel=9e4c43db40317010VgnVCM100000dc0ca8c0RCRD&#38;vgnextoid=26390713fb71c010VgnVCM1000000b205a0aRCRD"/>
	</node>
	<node id="-27074" lat="40.4409951" lon="-3.6934809">
		<tag k="addr:housenumber" v="2"/>
		<tag k="addr:postcode" v="28003"/>
		<tag k="addr:street" v="FIXME Plaza San Juan De La Cruz"/>
		<tag k="amenity" v="place_of_worship"/>
		<tag k="building" v="church"/>
		<tag k="denomination" v="roman_catholic"/>
		<tag k="name" v="Parroquia San Juan de la Cruz"/>
		<tag k="phone" v="+34 915339417"/>
		<tag k="religion" v="christian"/>
		<tag k="source" v="Ayuntamiento de Madrid"/>
		<tag k="source:date" v="2013-05-01"/>
		<tag k="url" v="http://www.madrid.es/vgn-ext-templating/v/index.jsp?vgnextchannel=9e4c43db40317010VgnVCM100000dc0ca8c0RCRD&#38;vgnextoid=0a3a0713fb71c010VgnVCM1000000b205a0aRCRD"/>
	</node>
	<node id="-27204" lat="40.4319773" lon="-3.70091">
		<tag k="addr:housenumber" v="19"/>
		<tag k="addr:postcode" v="28010"/>
		<tag k="addr:street" v="FIXME Calle Trafalgar"/>
		<tag k="amenity" v="place_of_worship"/>
		<tag k="building" v="church"/>
		<tag k="denomination" v="roman_catholic"/>
		<tag k="name" v="Parroquia Santa Feliciana"/>
		<tag k="phone" v="+34 914489905"/>
		<tag k="religion" v="christian"/>
		<tag k="source" v="Ayuntamiento de Madrid"/>
		<tag k="source:date" v="2013-05-01"/>
		<tag k="url" v="http://www.madrid.es/vgn-ext-templating/v/index.jsp?vgnextchannel=9e4c43db40317010VgnVCM100000dc0ca8c0RCRD&#38;vgnextoid=e041b069a541f010VgnVCM1000000b205a0aRCRD"/>
	</node>
	<node id="-27258" lat="40.4464537" lon="-3.701084">
		<tag k="addr:housenumber" v="18"/>
		<tag k="addr:postcode" v="28003"/>
		<tag k="addr:street" v="FIXME Calle Raimundo Fernandez Villaverde"/>
		<tag k="amenity" v="place_of_worship"/>
		<tag k="building" v="church"/>
		<tag k="denomination" v="roman_catholic"/>
		<tag k="description" v="Se encuentra ubicada dentrio del Hospital de Jornaleros de Maudes (edificio público de carácter benéfico promovido por doña Dolores Romero, viuda de Curiel, que fue Premio del Ayuntamiento en 1916) Parroquia de personas sordas y sordociega."/>
		<tag k="name" v="Parroquia Santa María del Silencio"/>
		<tag k="phone" v="+34 915546236"/>
		<tag k="religion" v="christian"/>
		<tag k="source" v="Ayuntamiento de Madrid"/>
		<tag k="source:date" v="2013-05-01"/>
		<tag k="url" v="http://www.madrid.es/vgn-ext-templating/v/index.jsp?vgnextchannel=9e4c43db40317010VgnVCM100000dc0ca8c0RCRD&#38;vgnextoid=9c43b069a541f010VgnVCM1000000b205a0aRCRD"/>
	</node>
	<node id="-27290" lat="40.4350781" lon="-3.6991501">
		<tag k="addr:housenumber" v="2"/>
		<tag k="addr:postcode" v="28010"/>
		<tag k="addr:street" v="FIXME Glorieta Pintor Sorolla"/>
		<tag k="amenity" v="place_of_worship"/>
		<tag k="building" v="church"/>
		<tag k="denomination" v="roman_catholic"/>
		<tag k="name" v="Parroquia Santa Teresa y Santa Isabel"/>
		<tag k="phone" v="+34 914483620"/>
		<tag k="religion" v="christian"/>
		<tag k="source" v="Ayuntamiento de Madrid"/>
		<tag k="source:date" v="2013-05-01"/>
		<tag k="url" v="http://www.madrid.es/vgn-ext-templating/v/index.jsp?vgnextchannel=9e4c43db40317010VgnVCM100000dc0ca8c0RCRD&#38;vgnextoid=6fc4b069a541f010VgnVCM1000000b205a0aRCRD"/>
	</node>
	<node id="-27312" lat="40.4400901" lon="-3.7075383">
		<tag k="addr:housenumber" v="4"/>
		<tag k="addr:postcode" v="28003"/>
		<tag k="addr:street" v="FIXME Calle Lucio Del Valle"/>
		<tag k="amenity" v="place_of_worship"/>
		<tag k="building" v="church"/>
		<tag k="denomination" v="roman_catholic"/>
		<tag k="name" v="Parroquia Santo Niño de Cebu"/>
		<tag k="phone" v="+34 915331033"/>
		<tag k="religion" v="christian"/>
		<tag k="source" v="Ayuntamiento de Madrid"/>
		<tag k="source:date" v="2013-05-01"/>
		<tag k="url" v="http://www.madrid.es/vgn-ext-templating/v/index.jsp?vgnextchannel=9e4c43db40317010VgnVCM100000dc0ca8c0RCRD&#38;vgnextoid=1b663d232e91f010VgnVCM1000000b205a0aRCRD"/>
	</node>
	<node id="-27334" lat="40.4336052" lon="-3.7116793">
		<tag k="addr:housenumber" v="33"/>
		<tag k="addr:postcode" v="28015"/>
		<tag k="addr:street" v="FIXME Calle Blasco De Garay"/>
		<tag k="amenity" v="place_of_worship"/>
		<tag k="building" v="church"/>
		<tag k="denomination" v="roman_catholic"/>
		<tag k="name" v="Parroquia Santísimo Cristo de la Victoria"/>
		<tag k="phone" v="+34 915437657"/>
		<tag k="religion" v="christian"/>
		<tag k="source" v="Ayuntamiento de Madrid"/>
		<tag k="source:date" v="2013-05-01"/>
		<tag k="url" v="http://www.madrid.es/vgn-ext-templating/v/index.jsp?vgnextchannel=9e4c43db40317010VgnVCM100000dc0ca8c0RCRD&#38;vgnextoid=a1b53d232e91f010VgnVCM1000000b205a0aRCRD"/>
	</node>
	<node id="-27378" lat="40.4302292" lon="-3.6964945">
		<tag k="addr:housenumber" v="20"/>
		<tag k="addr:postcode" v="28010"/>
		<tag k="addr:street" v="FIXME Calle Santa Engracia"/>
		<tag k="amenity" v="place_of_worship"/>
		<tag k="building" v="church"/>
		<tag k="denomination" v="roman_catholic"/>
		<tag k="name" v="Primer Monasterio de la Visitación (Las Salesas)"/>
		<tag k="phone" v="+34 914487822"/>
		<tag k="religion" v="christian"/>
		<tag k="source" v="Ayuntamiento de Madrid"/>
		<tag k="source:date" v="2013-05-01"/>
		<tag k="url" v="http://www.madrid.es/vgn-ext-templating/v/index.jsp?vgnextchannel=9e4c43db40317010VgnVCM100000dc0ca8c0RCRD&#38;vgnextoid=21a13d232e91f010VgnVCM1000000b205a0aRCRD"/>
	</node>
	<node id="-27486" lat="40.4435654" lon="-3.7004998">
		<tag k="addr:housenumber" v="6"/>
		<tag k="addr:postcode" v="28003"/>
		<tag k="addr:street" v="FIXME Calle Alenza"/>
		<tag k="amenity" v="place_of_worship"/>
		<tag k="denomination" v="seventh_day_adventist"/>
		<tag k="name" v="Iglesia Cristiana Adventista del Séptimo Día. Madrid Alenza"/>
		<tag k="religion" v="christian"/>
		<tag k="source" v="Ayuntamiento de Madrid"/>
		<tag k="source:date" v="2013-05-01"/>
		<tag k="url" v="http://www.madrid.es/vgn-ext-templating/v/index.jsp?vgnextchannel=9e4c43db40317010VgnVCM100000dc0ca8c0RCRD&#38;vgnextoid=435f6f065851c010VgnVCM2000000c205a0aRCRD"/>
	</node>
	<node id="-27492" lat="40.4372567" lon="-3.7082868">
		<tag k="addr:housenumber" v="70"/>
		<tag k="addr:postcode" v="28015"/>
		<tag k="addr:street" v="FIXME Calle Vallehermoso"/>
		<tag k="amenity" v="place_of_worship"/>
		<tag k="denomination" v="evangelical"/>
		<tag k="name" v="Iglesia Evangélica Pentecostal Amistad Cristiana"/>
		<tag k="religion" v="christian"/>
		<tag k="source" v="Ayuntamiento de Madrid"/>
		<tag k="source:date" v="2013-05-01"/>
		<tag k="url" v="http://www.madrid.es/vgn-ext-templating/v/index.jsp?vgnextchannel=9e4c43db40317010VgnVCM100000dc0ca8c0RCRD&#38;vgnextoid=64f10ac0dfc50410VgnVCM2000000c205a0aRCRD"/>
	</node>
	<node id="-27506" lat="40.4449301" lon="-3.7042284">
		<tag k="addr:housenumber" v="85"/>
		<tag k="addr:postcode" v="28003"/>
		<tag k="addr:street" v="FIXME Calle Bravo Murillo"/>
		<tag k="amenity" v="place_of_worship"/>
		<tag k="name" v="Iglesia de Cristo IEE"/>
		<tag k="religion" v="christian"/>
		<tag k="source" v="Ayuntamiento de Madrid"/>
		<tag k="source:date" v="2013-05-01"/>
		<tag k="url" v="http://www.madrid.es/vgn-ext-templating/v/index.jsp?vgnextchannel=9e4c43db40317010VgnVCM100000dc0ca8c0RCRD&#38;vgnextoid=03479bd56dc50410VgnVCM2000000c205a0aRCRD"/>
	</node>
</osm>
