<?xml version='1.0' encoding='UTF-8'?>
<osm version="0.6" generator="osmconvert 0.8">
	<bounds minlat="40.413496" minlon="-3.6474609" maxlat="40.4302236" maxlon="-3.6254882"/>
	<node id="-26726" lat="40.4299069" lon="-3.6318506">
		<tag k="addr:housenumber" v="49"/>
		<tag k="addr:postcode" v="28037"/>
		<tag k="addr:street" v="FIXME Calle Hermanos Garcia Noblejas"/>
		<tag k="amenity" v="place_of_worship"/>
		<tag k="building" v="church"/>
		<tag k="denomination" v="roman_catholic"/>
		<tag k="name" v="Parroquia Encarnación del Señor"/>
		<tag k="phone" v="+34 913040308"/>
		<tag k="religion" v="christian"/>
		<tag k="source" v="Ayuntamiento de Madrid"/>
		<tag k="source:date" v="2013-05-01"/>
		<tag k="url" v="http://www.madrid.es/vgn-ext-templating/v/index.jsp?vgnextchannel=9e4c43db40317010VgnVCM100000dc0ca8c0RCRD&#38;vgnextoid=865313db5b71c010VgnVCM1000000b205a0aRCRD"/>
	</node>
	<node id="-26742" lat="40.4277159" lon="-3.6255584">
		<tag k="addr:housenumber" v="26"/>
		<tag k="addr:postcode" v="28037"/>
		<tag k="addr:street" v="FIXME Calle Castillo De Ucles"/>
		<tag k="amenity" v="place_of_worship"/>
		<tag k="building" v="church"/>
		<tag k="denomination" v="roman_catholic"/>
		<tag k="name" v="Parroquia Jesús Divino Obrero"/>
		<tag k="phone" v="+34 913044109"/>
		<tag k="religion" v="christian"/>
		<tag k="source" v="Ayuntamiento de Madrid"/>
		<tag k="source:date" v="2013-05-01"/>
		<tag k="url" v="http://www.madrid.es/vgn-ext-templating/v/index.jsp?vgnextchannel=9e4c43db40317010VgnVCM100000dc0ca8c0RCRD&#38;vgnextoid=cb6eef4d7f71c010VgnVCM1000000b205a0aRCRD"/>
	</node>
	<node id="-26778" lat="40.4213905" lon="-3.6290715">
		<tag k="addr:housenumber" v="3"/>
		<tag k="addr:postcode" v="28017"/>
		<tag k="addr:street" v="FIXME Calle Villasilos"/>
		<tag k="amenity" v="place_of_worship"/>
		<tag k="building" v="church"/>
		<tag k="denomination" v="roman_catholic"/>
		<tag k="email" v="nslagranada@gmail.com / nslagranada@archimadrid.es"/>
		<tag k="name" v="Parroquia Nuestra Señora de la Granada"/>
		<tag k="phone" v="+34 913043400"/>
		<tag k="religion" v="christian"/>
		<tag k="source" v="Ayuntamiento de Madrid"/>
		<tag k="source:date" v="2013-05-01"/>
		<tag k="url" v="http://www.madrid.es/vgn-ext-templating/v/index.jsp?vgnextchannel=9e4c43db40317010VgnVCM100000dc0ca8c0RCRD&#38;vgnextoid=8a4fef4d7f71c010VgnVCM1000000b205a0aRCRD"/>
	</node>
	<node id="-27154" lat="40.4299939" lon="-3.6405991">
		<tag k="addr:housenumber" v="30"/>
		<tag k="addr:postcode" v="28017"/>
		<tag k="addr:street" v="FIXME Calle Ascao"/>
		<tag k="amenity" v="place_of_worship"/>
		<tag k="building" v="church"/>
		<tag k="denomination" v="roman_catholic"/>
		<tag k="name" v="Parroquia San Romualdo"/>
		<tag k="phone" v="+34 913675135"/>
		<tag k="religion" v="christian"/>
		<tag k="source" v="Ayuntamiento de Madrid"/>
		<tag k="source:date" v="2013-05-01"/>
		<tag k="url" v="http://www.madrid.es/vgn-ext-templating/v/index.jsp?vgnextchannel=9e4c43db40317010VgnVCM100000dc0ca8c0RCRD&#38;vgnextoid=96ceb069a541f010VgnVCM1000000b205a0aRCRD"/>
	</node>
	<node id="-27314" lat="40.424663" lon="-3.6368941">
		<tag k="addr:housenumber" v="18"/>
		<tag k="addr:postcode" v="28017"/>
		<tag k="addr:street" v="FIXME Calle Fernando Gabriel"/>
		<tag k="amenity" v="place_of_worship"/>
		<tag k="building" v="church"/>
		<tag k="denomination" v="roman_catholic"/>
		<tag k="name" v="Parroquia Santo Tomás Apóstol"/>
		<tag k="phone" v="+34 917545505"/>
		<tag k="religion" v="christian"/>
		<tag k="source" v="Ayuntamiento de Madrid"/>
		<tag k="source:date" v="2013-05-01"/>
		<tag k="url" v="http://www.madrid.es/vgn-ext-templating/v/index.jsp?vgnextchannel=9e4c43db40317010VgnVCM100000dc0ca8c0RCRD&#38;vgnextoid=1e763d232e91f010VgnVCM1000000b205a0aRCRD"/>
	</node>
	<node id="-27350" lat="40.4287339" lon="-3.6272301">
		<tag k="addr:housenumber" v="1"/>
		<tag k="addr:postcode" v="28037"/>
		<tag k="addr:street" v="FIXME Calle Castillo De Simancas"/>
		<tag k="amenity" v="place_of_worship"/>
		<tag k="building" v="church"/>
		<tag k="denomination" v="roman_catholic"/>
		<tag k="name" v="Parroquia Virgen de La Oliva"/>
		<tag k="phone" v="+34 913043762"/>
		<tag k="religion" v="christian"/>
		<tag k="source" v="Ayuntamiento de Madrid"/>
		<tag k="source:date" v="2013-05-01"/>
		<tag k="url" v="http://www.madrid.es/vgn-ext-templating/v/index.jsp?vgnextchannel=9e4c43db40317010VgnVCM100000dc0ca8c0RCRD&#38;vgnextoid=1b373d232e91f010VgnVCM1000000b205a0aRCRD"/>
	</node>
	<node id="-27436" lat="40.4274256" lon="-3.6391129">
		<tag k="addr:housenumber" v="117"/>
		<tag k="addr:postcode" v="28017"/>
		<tag k="addr:street" v="FIXME Calle Gutierre De Cetina"/>
		<tag k="amenity" v="place_of_worship"/>
		<tag k="name" v="Iglesia Misionera Asamblea Cristiana"/>
		<tag k="religion" v="christian"/>
		<tag k="source" v="Ayuntamiento de Madrid"/>
		<tag k="source:date" v="2013-05-01"/>
		<tag k="url" v="http://www.madrid.es/vgn-ext-templating/v/index.jsp?vgnextchannel=9e4c43db40317010VgnVCM100000dc0ca8c0RCRD&#38;vgnextoid=c7045ac33d160410VgnVCM2000000c205a0aRCRD"/>
	</node>
	<node id="-27474" lat="40.4280279" lon="-3.6360652">
		<tag k="addr:housenumber" v="75"/>
		<tag k="addr:postcode" v="28017"/>
		<tag k="addr:street" v="FIXME Calle Luis Ruiz"/>
		<tag k="amenity" v="place_of_worship"/>
		<tag k="denomination" v="jehovahs_witness"/>
		<tag k="name" v="Testigos Cristianos de Jehová. Calle Luis Ruiz"/>
		<tag k="phone" v="+34 913759717"/>
		<tag k="religion" v="christian"/>
		<tag k="source" v="Ayuntamiento de Madrid"/>
		<tag k="source:date" v="2013-05-01"/>
		<tag k="url" v="http://www.madrid.es/vgn-ext-templating/v/index.jsp?vgnextchannel=9e4c43db40317010VgnVCM100000dc0ca8c0RCRD&#38;vgnextoid=c9a65068d6619210VgnVCM2000000c205a0aRCRD"/>
	</node>
</osm>
