<?xml version='1.0' encoding='UTF-8'?>
<osm version="0.6" generator="osmconvert 0.8">
	<bounds minlat="40.3800283" minlon="-3.6694335" maxlat="40.3967642" maxlon="-3.6474609"/>
	<node id="-26760" lat="40.3936307" lon="-3.6571157">
		<tag k="addr:housenumber" v="5"/>
		<tag k="addr:postcode" v="28038"/>
		<tag k="addr:street" v="FIXME Calle Pico De La Maliciosa"/>
		<tag k="amenity" v="place_of_worship"/>
		<tag k="building" v="church"/>
		<tag k="denomination" v="roman_catholic"/>
		<tag k="name" v="Parroquia María Reina"/>
		<tag k="phone" v="+34 914780996"/>
		<tag k="religion" v="christian"/>
		<tag k="source" v="Ayuntamiento de Madrid"/>
		<tag k="source:date" v="2013-05-01"/>
		<tag k="url" v="http://www.madrid.es/vgn-ext-templating/v/index.jsp?vgnextchannel=9e4c43db40317010VgnVCM100000dc0ca8c0RCRD&#38;vgnextoid=400fef4d7f71c010VgnVCM1000000b205a0aRCRD"/>
	</node>
	<node id="-26768" lat="40.3923503" lon="-3.6683204">
		<tag k="addr:housenumber" v="8"/>
		<tag k="addr:postcode" v="28053"/>
		<tag k="addr:street" v="FIXME Calle Gregorio Sanz"/>
		<tag k="amenity" v="place_of_worship"/>
		<tag k="building" v="church"/>
		<tag k="denomination" v="roman_catholic"/>
		<tag k="email" v="parroquia@cmfvallecas.com / nsauroraysaguarda@archimadrid.es"/>
		<tag k="name" v="Parroquia Nuestra Señora de la Aurora y Santo Ángel de la Guarda"/>
		<tag k="phone" v="+34 914774456"/>
		<tag k="religion" v="christian"/>
		<tag k="source" v="Ayuntamiento de Madrid"/>
		<tag k="source:date" v="2013-05-01"/>
		<tag k="url" v="http://www.madrid.es/vgn-ext-templating/v/index.jsp?vgnextchannel=9e4c43db40317010VgnVCM100000dc0ca8c0RCRD&#38;vgnextoid=8f7413db5b71c010VgnVCM1000000b205a0aRCRD"/>
	</node>
	<node id="-26786" lat="40.390498" lon="-3.6582635">
		<tag k="addr:housenumber" v="100"/>
		<tag k="addr:postcode" v="28018"/>
		<tag k="addr:street" v="FIXME Calle Arroyo Del Olivar"/>
		<tag k="amenity" v="place_of_worship"/>
		<tag k="building" v="church"/>
		<tag k="denomination" v="roman_catholic"/>
		<tag k="email" v="parroquiamisericordia@yahoo.es / nsmisericordia@archimadrid.es"/>
		<tag k="name" v="Parroquia Nuestra Señora de la Misericordia"/>
		<tag k="phone" v="+34 917773597"/>
		<tag k="religion" v="christian"/>
		<tag k="source" v="Ayuntamiento de Madrid"/>
		<tag k="source:date" v="2013-05-01"/>
		<tag k="url" v="http://www.madrid.es/vgn-ext-templating/v/index.jsp?vgnextchannel=9e4c43db40317010VgnVCM100000dc0ca8c0RCRD&#38;vgnextoid=c49fef4d7f71c010VgnVCM1000000b205a0aRCRD"/>
	</node>
	<node id="-26796" lat="40.3894251" lon="-3.6615757">
		<tag k="addr:housenumber" v="24"/>
		<tag k="addr:postcode" v="28018"/>
		<tag k="addr:street" v="FIXME Calle Antonio Folgueras"/>
		<tag k="amenity" v="place_of_worship"/>
		<tag k="building" v="church"/>
		<tag k="denomination" v="roman_catholic"/>
		<tag k="email" v="nosapiedad@archimadrid.es"/>
		<tag k="name" v="Parroquia Nuestra Señora de la Piedad"/>
		<tag k="phone" v="+34 914783737"/>
		<tag k="religion" v="christian"/>
		<tag k="source" v="Ayuntamiento de Madrid"/>
		<tag k="source:date" v="2013-05-01"/>
		<tag k="url" v="http://www.madrid.es/vgn-ext-templating/v/index.jsp?vgnextchannel=9e4c43db40317010VgnVCM100000dc0ca8c0RCRD&#38;vgnextoid=0fdfef4d7f71c010VgnVCM1000000b205a0aRCRD"/>
	</node>
	<node id="-26850" lat="40.382443" lon="-3.6568303">
		<tag k="addr:housenumber" v="13"/>
		<tag k="addr:postcode" v="28018"/>
		<tag k="addr:street" v="FIXME Calle Cleopatra"/>
		<tag k="amenity" v="place_of_worship"/>
		<tag k="building" v="church"/>
		<tag k="denomination" v="roman_catholic"/>
		<tag k="email" v="nsconsuelo@hotmail.com / nsconsuelo@archimadrid.es"/>
		<tag k="name" v="Parroquia Nuestra Señora del Consuelo"/>
		<tag k="phone" v="+34 917783554"/>
		<tag k="religion" v="christian"/>
		<tag k="source" v="Ayuntamiento de Madrid"/>
		<tag k="source:date" v="2013-05-01"/>
		<tag k="url" v="http://www.madrid.es/vgn-ext-templating/v/index.jsp?vgnextchannel=9e4c43db40317010VgnVCM100000dc0ca8c0RCRD&#38;vgnextoid=f31a444a2951c010VgnVCM2000000c205a0aRCRD"/>
	</node>
	<node id="-26910" lat="40.3847078" lon="-3.6514329">
		<tag k="addr:housenumber" v="78"/>
		<tag k="addr:postcode" v="28018"/>
		<tag k="addr:street" v="FIXME Calle Pedro Laborde"/>
		<tag k="amenity" v="place_of_worship"/>
		<tag k="building" v="church"/>
		<tag k="denomination" v="roman_catholic"/>
		<tag k="name" v="Parroquia Patrocinio de San José"/>
		<tag k="phone" v="+34 917774399"/>
		<tag k="religion" v="christian"/>
		<tag k="source" v="Ayuntamiento de Madrid"/>
		<tag k="source:date" v="2013-05-01"/>
		<tag k="url" v="http://www.madrid.es/vgn-ext-templating/v/index.jsp?vgnextchannel=9e4c43db40317010VgnVCM100000dc0ca8c0RCRD&#38;vgnextoid=8c91ef4d7f71c010VgnVCM1000000b205a0aRCRD"/>
	</node>
	<node id="-26932" lat="40.3952799" lon="-3.650651">
		<tag k="addr:housenumber" v="9"/>
		<tag k="addr:postcode" v="28038"/>
		<tag k="addr:street" v="FIXME Calle Benjamin Palencia"/>
		<tag k="amenity" v="place_of_worship"/>
		<tag k="building" v="church"/>
		<tag k="denomination" v="roman_catholic"/>
		<tag k="name" v="Parroquia San Alberto Magno"/>
		<tag k="phone" v="+34 917782018"/>
		<tag k="religion" v="christian"/>
		<tag k="source" v="Ayuntamiento de Madrid"/>
		<tag k="source:date" v="2013-05-01"/>
		<tag k="url" v="http://www.madrid.es/vgn-ext-templating/v/index.jsp?vgnextchannel=9e4c43db40317010VgnVCM100000dc0ca8c0RCRD&#38;vgnextoid=b47613db5b71c010VgnVCM1000000b205a0aRCRD"/>
	</node>
	<node id="-26982" lat="40.386981" lon="-3.6682909">
		<tag k="addr:housenumber" v="61"/>
		<tag k="addr:postcode" v="28053"/>
		<tag k="addr:street" v="FIXME Avenida San Diego"/>
		<tag k="amenity" v="place_of_worship"/>
		<tag k="building" v="church"/>
		<tag k="denomination" v="roman_catholic"/>
		<tag k="name" v="Parroquia San Diego"/>
		<tag k="phone" v="+34 914777244"/>
		<tag k="religion" v="christian"/>
		<tag k="source" v="Ayuntamiento de Madrid"/>
		<tag k="source:date" v="2013-05-01"/>
		<tag k="url" v="http://www.madrid.es/vgn-ext-templating/v/index.jsp?vgnextchannel=9e4c43db40317010VgnVCM100000dc0ca8c0RCRD&#38;vgnextoid=1f880713fb71c010VgnVCM1000000b205a0aRCRD"/>
	</node>
	<node id="-27006" lat="40.3931349" lon="-3.6619065">
		<tag k="addr:housenumber" v="4"/>
		<tag k="addr:postcode" v="28053"/>
		<tag k="addr:street" v="FIXME Plaza Gobernador Carlos Ruiz"/>
		<tag k="amenity" v="place_of_worship"/>
		<tag k="building" v="church"/>
		<tag k="denomination" v="roman_catholic"/>
		<tag k="name" v="Parroquia San Francisco de Asís"/>
		<tag k="phone" v="+34 914770396"/>
		<tag k="religion" v="christian"/>
		<tag k="source" v="Ayuntamiento de Madrid"/>
		<tag k="source:date" v="2013-05-01"/>
		<tag k="url" v="http://www.madrid.es/vgn-ext-templating/v/index.jsp?vgnextchannel=9e4c43db40317010VgnVCM100000dc0ca8c0RCRD&#38;vgnextoid=dd690713fb71c010VgnVCM1000000b205a0aRCRD"/>
	</node>
	<node id="-27058" lat="40.3844933" lon="-3.666935">
		<tag k="addr:housenumber" v="12"/>
		<tag k="addr:postcode" v="28018"/>
		<tag k="addr:street" v="FIXME Calle Imagen"/>
		<tag k="amenity" v="place_of_worship"/>
		<tag k="building" v="church"/>
		<tag k="denomination" v="roman_catholic"/>
		<tag k="name" v="Parroquia San José de Calasanz"/>
		<tag k="phone" v="+34 914778315"/>
		<tag k="religion" v="christian"/>
		<tag k="source" v="Ayuntamiento de Madrid"/>
		<tag k="source:date" v="2013-05-01"/>
		<tag k="url" v="http://www.madrid.es/vgn-ext-templating/v/index.jsp?vgnextchannel=9e4c43db40317010VgnVCM100000dc0ca8c0RCRD&#38;vgnextoid=7743ef4d7f71c010VgnVCM1000000b205a0aRCRD"/>
	</node>
	<node id="-27124" lat="40.389687" lon="-3.6535427">
		<tag k="addr:housenumber" v="25"/>
		<tag k="addr:postcode" v="28038"/>
		<tag k="addr:street" v="FIXME Calle El Escritor"/>
		<tag k="amenity" v="place_of_worship"/>
		<tag k="building" v="church"/>
		<tag k="denomination" v="roman_catholic"/>
		<tag k="name" v="Parroquia San Pablo"/>
		<tag k="phone" v="+34 913030175"/>
		<tag k="religion" v="christian"/>
		<tag k="source" v="Ayuntamiento de Madrid"/>
		<tag k="source:date" v="2013-05-01"/>
		<tag k="url" v="http://www.madrid.es/vgn-ext-templating/v/index.jsp?vgnextchannel=9e4c43db40317010VgnVCM100000dc0ca8c0RCRD&#38;vgnextoid=dfd4ef4d7f71c010VgnVCM1000000b205a0aRCRD"/>
	</node>
	<node id="-27140" lat="40.3867371" lon="-3.6637172">
		<tag k="addr:housenumber" v="1"/>
		<tag k="addr:postcode" v="28018"/>
		<tag k="addr:street" v="FIXME Plaza Pe--FIXME--Amp;Ntilde;A Gudina"/>
		<tag k="amenity" v="place_of_worship"/>
		<tag k="building" v="church"/>
		<tag k="denomination" v="roman_catholic"/>
		<tag k="name" v="Parroquia San Pedro Regalado"/>
		<tag k="phone" v="+34 917862230"/>
		<tag k="religion" v="christian"/>
		<tag k="source" v="Ayuntamiento de Madrid"/>
		<tag k="source:date" v="2013-05-01"/>
		<tag k="url" v="http://www.madrid.es/vgn-ext-templating/v/index.jsp?vgnextchannel=9e4c43db40317010VgnVCM100000dc0ca8c0RCRD&#38;vgnextoid=f43eb069a541f010VgnVCM1000000b205a0aRCRD"/>
	</node>
	<node id="-27316" lat="40.3823856" lon="-3.6478526">
		<tag k="addr:housenumber" v="6"/>
		<tag k="addr:postcode" v="28018"/>
		<tag k="addr:street" v="FIXME Calle Leoneses"/>
		<tag k="amenity" v="place_of_worship"/>
		<tag k="building" v="church"/>
		<tag k="denomination" v="roman_catholic"/>
		<tag k="name" v="Parroquia Santo Tomás de Villanueva"/>
		<tag k="phone" v="+34 913038646"/>
		<tag k="religion" v="christian"/>
		<tag k="source" v="Ayuntamiento de Madrid"/>
		<tag k="source:date" v="2013-05-01"/>
		<tag k="url" v="http://www.madrid.es/vgn-ext-templating/v/index.jsp?vgnextchannel=9e4c43db40317010VgnVCM100000dc0ca8c0RCRD&#38;vgnextoid=11963d232e91f010VgnVCM1000000b205a0aRCRD"/>
	</node>
	<node id="-27320" lat="40.3897612" lon="-3.6483592">
		<tag k="addr:housenumber" v="22"/>
		<tag k="addr:postcode" v="28038"/>
		<tag k="addr:street" v="FIXME Calle Ramirez Tome"/>
		<tag k="amenity" v="place_of_worship"/>
		<tag k="building" v="church"/>
		<tag k="denomination" v="roman_catholic"/>
		<tag k="name" v="Parroquia Santos Cosme y Damián"/>
		<tag k="phone" v="+34 917774769"/>
		<tag k="religion" v="christian"/>
		<tag k="source" v="Ayuntamiento de Madrid"/>
		<tag k="source:date" v="2013-05-01"/>
		<tag k="url" v="http://www.madrid.es/vgn-ext-templating/v/index.jsp?vgnextchannel=9e4c43db40317010VgnVCM100000dc0ca8c0RCRD&#38;vgnextoid=d6b63d232e91f010VgnVCM1000000b205a0aRCRD"/>
	</node>
	<node id="-27428" lat="40.3956687" lon="-3.6630979">
		<tag k="addr:housenumber" v="2"/>
		<tag k="addr:postcode" v="28038"/>
		<tag k="addr:street" v="FIXME Calle San Virgilio"/>
		<tag k="amenity" v="place_of_worship"/>
		<tag k="denomination" v="baptist"/>
		<tag k="name" v="Iglesia Bautista de Vallecas"/>
		<tag k="religion" v="christian"/>
		<tag k="source" v="Ayuntamiento de Madrid"/>
		<tag k="source:date" v="2013-05-01"/>
		<tag k="url" v="http://www.madrid.es/vgn-ext-templating/v/index.jsp?vgnextchannel=9e4c43db40317010VgnVCM100000dc0ca8c0RCRD&#38;vgnextoid=19bdb607bec50410VgnVCM2000000c205a0aRCRD"/>
	</node>
	<node id="-27480" lat="40.3963558" lon="-3.665803">
		<tag k="addr:housenumber" v="46"/>
		<tag k="addr:postcode" v="28038"/>
		<tag k="addr:street" v="FIXME Avenida Albufera"/>
		<tag k="amenity" v="place_of_worship"/>
		<tag k="denomination" v="evangelical"/>
		<tag k="name" v="Iglesia Evangélica Eben Ezer Dios es amor"/>
		<tag k="religion" v="christian"/>
		<tag k="source" v="Ayuntamiento de Madrid"/>
		<tag k="source:date" v="2013-05-01"/>
		<tag k="url" v="http://www.madrid.es/vgn-ext-templating/v/index.jsp?vgnextchannel=9e4c43db40317010VgnVCM100000dc0ca8c0RCRD&#38;vgnextoid=61a794d12cd50410VgnVCM2000000c205a0aRCRD"/>
	</node>
	<node id="-27520" lat="40.3847339" lon="-3.6673969">
		<tag k="addr:housenumber" v="13"/>
		<tag k="addr:postcode" v="28018"/>
		<tag k="addr:street" v="FIXME Calle Doctor Bellido"/>
		<tag k="amenity" v="place_of_worship"/>
		<tag k="denomination" v="seventh_day_adventist"/>
		<tag k="name" v="Iglesia Cristiana Adventista del Séptimo Día. Madrid Vallecas"/>
		<tag k="religion" v="christian"/>
		<tag k="source" v="Ayuntamiento de Madrid"/>
		<tag k="source:date" v="2013-05-01"/>
		<tag k="url" v="http://www.madrid.es/vgn-ext-templating/v/index.jsp?vgnextchannel=9e4c43db40317010VgnVCM100000dc0ca8c0RCRD&#38;vgnextoid=26f70bf21677f010VgnVCM1000000b205a0aRCRD"/>
	</node>
	<node id="-27532" lat="40.3885929" lon="-3.6494556">
		<tag k="addr:housenumber" v="24"/>
		<tag k="addr:postcode" v="28038"/>
		<tag k="addr:street" v="FIXME Calle Sierra Salvada"/>
		<tag k="amenity" v="place_of_worship"/>
		<tag k="denomination" v="jehovahs_witness"/>
		<tag k="name" v="Testigos Cristianos de Jehová. Calle Sierra Salvada"/>
		<tag k="phone" v="+34 917782297"/>
		<tag k="religion" v="christian"/>
		<tag k="source" v="Ayuntamiento de Madrid"/>
		<tag k="source:date" v="2013-05-01"/>
		<tag k="url" v="http://www.madrid.es/vgn-ext-templating/v/index.jsp?vgnextchannel=9e4c43db40317010VgnVCM100000dc0ca8c0RCRD&#38;vgnextoid=c5ab6dd8f677f010VgnVCM2000000c205a0aRCRD"/>
	</node>
	<node id="-27544" lat="40.3947735" lon="-3.6652336">
		<tag k="addr:housenumber" v="10"/>
		<tag k="addr:postcode" v="28053"/>
		<tag k="addr:street" v="FIXME Calle Puerto Del Monasterio"/>
		<tag k="amenity" v="place_of_worship"/>
		<tag k="denomination" v="evangelical"/>
		<tag k="name" v="Centro de Evangelización Anuncio de Paz"/>
		<tag k="religion" v="christian"/>
		<tag k="source" v="Ayuntamiento de Madrid"/>
		<tag k="source:date" v="2013-05-01"/>
		<tag k="url" v="http://www.madrid.es/vgn-ext-templating/v/index.jsp?vgnextchannel=9e4c43db40317010VgnVCM100000dc0ca8c0RCRD&#38;vgnextoid=17bb8105e2260410VgnVCM2000000c205a0aRCRD"/>
	</node>
	<node id="-27576" lat="40.3820777" lon="-3.66558">
		<tag k="addr:housenumber" v="39"/>
		<tag k="addr:postcode" v="28018"/>
		<tag k="addr:street" v="FIXME Calle San Moisés"/>
		<tag k="amenity" v="place_of_worship"/>
		<tag k="denomination" v="jehovahs_witness"/>
		<tag k="name" v="Testigos Cristianos de Jehová. Calle San Moisés"/>
		<tag k="phone" v="+34 915157133"/>
		<tag k="religion" v="christian"/>
		<tag k="source" v="Ayuntamiento de Madrid"/>
		<tag k="source:date" v="2013-05-01"/>
		<tag k="url" v="http://www.madrid.es/vgn-ext-templating/v/index.jsp?vgnextchannel=9e4c43db40317010VgnVCM100000dc0ca8c0RCRD&#38;vgnextoid=e73b6dd8f677f010VgnVCM2000000c205a0aRCRD"/>
	</node>
	<node id="-27580" lat="40.3922401" lon="-3.6639833">
		<tag k="addr:housenumber" v="31"/>
		<tag k="addr:postcode" v="28053"/>
		<tag k="addr:street" v="FIXME Calle Sierra Carbonera"/>
		<tag k="amenity" v="place_of_worship"/>
		<tag k="denomination" v="evangelical"/>
		<tag k="name" v="Iglesia Evangélica Fuente de la Vida"/>
		<tag k="religion" v="christian"/>
		<tag k="source" v="Ayuntamiento de Madrid"/>
		<tag k="source:date" v="2013-05-01"/>
		<tag k="url" v="http://www.madrid.es/vgn-ext-templating/v/index.jsp?vgnextchannel=9e4c43db40317010VgnVCM100000dc0ca8c0RCRD&#38;vgnextoid=e9e95ac33d160410VgnVCM2000000c205a0aRCRD"/>
	</node>
</osm>
