<?xml version='1.0' encoding='UTF-8'?>
<osm version="0.6" generator="osmconvert 0.8">
	<bounds minlat="40.413496" minlon="-3.6474609" maxlat="40.446947" maxlon="-3.6035156"/>
	<node id="-22883" lat="40.4190947" lon="-3.6210946">
		<tag k="addr:street" v="FIXME GUADALAJARA, AVENIDA, DE"/>
		<tag k="capacity" v="5"/>
		<tag k="amenity" v="taxi"/>
		<tag k="operator" v="Ayuntamiento de Madrid"/>
		<tag k="source" v="Ayuntamiento de Madrid"/>
		<tag k="source:date" v="2016-10-27"/>
	</node>
	<node id="-22884" lat="40.4276869" lon="-3.6046051">
		<tag k="addr:street" v="FIXME SUECIA, CALLE, DE"/>
		<tag k="capacity" v="2"/>
		<tag k="opening_hours" v="Mo-Fr 06:00-19:00; PH off"/>
		<tag k="amenity" v="taxi"/>
		<tag k="operator" v="Ayuntamiento de Madrid"/>
		<tag k="source" v="Ayuntamiento de Madrid"/>
		<tag k="source:date" v="2016-10-27"/>
	</node>
	<node id="-22885" lat="40.445185" lon="-3.6147109">
		<tag k="addr:street" v="FIXME ALCALA, CALLE, DE"/>
		<tag k="capacity" v="4"/>
		<tag k="opening_hours" v="Mo-Fr 06:00-19:00; PH off"/>
		<tag k="amenity" v="taxi"/>
		<tag k="operator" v="Ayuntamiento de Madrid"/>
		<tag k="source" v="Ayuntamiento de Madrid"/>
		<tag k="source:date" v="2016-10-27"/>
	</node>
	<node id="-22891" lat="40.4298112" lon="-3.6157857">
		<tag k="addr:street" v="FIXME HELLIN, AVENIDA, DE"/>
		<tag k="capacity" v="3"/>
		<tag k="opening_hours" v="Mo-Fr 08:00-19:00; PH off"/>
		<tag k="amenity" v="taxi"/>
		<tag k="operator" v="Ayuntamiento de Madrid"/>
		<tag k="source" v="Ayuntamiento de Madrid"/>
		<tag k="source:date" v="2016-10-27"/>
	</node>
	<node id="-22892" lat="40.4297632" lon="-3.6068814">
		<tag k="addr:street" v="FIXME NIZA, AVENIDA, DE"/>
		<tag k="capacity" v="3"/>
		<tag k="opening_hours" v="Mo-Fr 06:00-19:00; PH off"/>
		<tag k="amenity" v="taxi"/>
		<tag k="operator" v="Ayuntamiento de Madrid"/>
		<tag k="source" v="Ayuntamiento de Madrid"/>
		<tag k="source:date" v="2016-10-27"/>
	</node>
	<node id="-22893" lat="40.4246574" lon="-3.6068673">
		<tag k="addr:street" v="FIXME GINEBRA, PASEO, DE"/>
		<tag k="capacity" v="3"/>
		<tag k="opening_hours" v="Mo-Fr 06:00-19:00; PH off"/>
		<tag k="amenity" v="taxi"/>
		<tag k="operator" v="Ayuntamiento de Madrid"/>
		<tag k="source" v="Ayuntamiento de Madrid"/>
		<tag k="source:date" v="2016-10-27"/>
	</node>
	<node id="-22957" lat="40.4423794" lon="-3.6198474">
		<tag k="addr:street" v="FIXME CRONOS, CALLE, DE"/>
		<tag k="capacity" v="4"/>
		<tag k="amenity" v="taxi"/>
		<tag k="operator" v="Ayuntamiento de Madrid"/>
		<tag k="source" v="Ayuntamiento de Madrid"/>
		<tag k="source:date" v="2016-10-27"/>
	</node>
	<node id="-23088" lat="40.4298301" lon="-3.6319842">
		<tag k="addr:street" v="FIXME HERMANOS GARCIA NOBLEJAS, CALLE, DE LOS"/>
		<tag k="capacity" v="6"/>
		<tag k="amenity" v="taxi"/>
		<tag k="operator" v="Ayuntamiento de Madrid"/>
		<tag k="source" v="Ayuntamiento de Madrid"/>
		<tag k="source:date" v="2016-10-27"/>
	</node>
	<node id="-23089" lat="40.438077" lon="-3.637656">
		<tag k="addr:street" v="FIXME ALCALA, CALLE, DE"/>
		<tag k="capacity" v="4"/>
		<tag k="amenity" v="taxi"/>
		<tag k="operator" v="Ayuntamiento de Madrid"/>
		<tag k="source" v="Ayuntamiento de Madrid"/>
		<tag k="source:date" v="2016-10-27"/>
	</node>
	<node id="-23099" lat="40.4353474" lon="-3.6436391">
		<tag k="addr:street" v="FIXME ALCALA, CALLE, DE"/>
		<tag k="capacity" v="3"/>
		<tag k="amenity" v="taxi"/>
		<tag k="operator" v="Ayuntamiento de Madrid"/>
		<tag k="source" v="Ayuntamiento de Madrid"/>
		<tag k="source:date" v="2016-10-27"/>
	</node>
	<node id="-23103" lat="40.43183" lon="-3.6415812">
		<tag k="addr:street" v="FIXME EMILIO FERRARI, CALLE, DE"/>
		<tag k="capacity" v="6"/>
		<tag k="opening_hours" v="Mo-Fr 06:00-21:00; PH off"/>
		<tag k="amenity" v="taxi"/>
		<tag k="operator" v="Ayuntamiento de Madrid"/>
		<tag k="source" v="Ayuntamiento de Madrid"/>
		<tag k="source:date" v="2016-10-27"/>
	</node>
	<node id="-23106" lat="40.42328" lon="-3.6272373">
		<tag k="addr:street" v="FIXME HERMANOS GARCIA NOBLEJAS, CALLE, DE LOS"/>
		<tag k="capacity" v="5"/>
		<tag k="amenity" v="taxi"/>
		<tag k="operator" v="Ayuntamiento de Madrid"/>
		<tag k="source" v="Ayuntamiento de Madrid"/>
		<tag k="source:date" v="2016-10-27"/>
	</node>
	<node id="-23136" lat="40.4338727" lon="-3.6324251">
		<tag k="addr:street" v="FIXME JULIAN CAMARILLO, CALLE, DE"/>
		<tag k="capacity" v="3"/>
		<tag k="amenity" v="taxi"/>
		<tag k="operator" v="Ayuntamiento de Madrid"/>
		<tag k="source" v="Ayuntamiento de Madrid"/>
		<tag k="source:date" v="2016-10-27"/>
	</node>
	<node id="-23141" lat="40.4394339" lon="-3.6319741">
		<tag k="addr:street" v="FIXME ALCALA, CALLE, DE"/>
		<tag k="capacity" v="2"/>
		<tag k="opening_hours" v="Mo-Fr 08:00-19:00; PH off"/>
		<tag k="amenity" v="taxi"/>
		<tag k="operator" v="Ayuntamiento de Madrid"/>
		<tag k="source" v="Ayuntamiento de Madrid"/>
		<tag k="source:date" v="2016-10-27"/>
	</node>
	<node id="-23157" lat="40.4248399" lon="-3.6207325">
		<tag k="addr:street" v="FIXME AMPOSTA, CALLE, DE"/>
		<tag k="capacity" v="5"/>
		<tag k="amenity" v="taxi"/>
		<tag k="operator" v="Ayuntamiento de Madrid"/>
		<tag k="source" v="Ayuntamiento de Madrid"/>
		<tag k="source:date" v="2016-10-27"/>
	</node>
</osm>
