<?xml version='1.0' encoding='UTF-8'?>
<osm version="0.6" generator="osmconvert 0.8">
	<bounds minlat="40.413496" minlon="-3.6914062" maxlat="40.4302236" maxlon="-3.6694335"/>
	<node id="-22814" lat="40.4299643" lon="-3.6869388">
		<tag k="addr:street" v="FIXME SERRANO, CALLE, DE"/>
		<tag k="capacity" v="11"/>
		<tag k="amenity" v="taxi"/>
		<tag k="operator" v="Ayuntamiento de Madrid"/>
		<tag k="source" v="Ayuntamiento de Madrid"/>
		<tag k="source:date" v="2016-10-27"/>
	</node>
	<node id="-22817" lat="40.420074" lon="-3.6695008">
		<tag k="addr:street" v="FIXME DOCTOR CASTELO, CALLE, DEL"/>
		<tag k="capacity" v="5"/>
		<tag k="amenity" v="taxi"/>
		<tag k="operator" v="Ayuntamiento de Madrid"/>
		<tag k="source" v="Ayuntamiento de Madrid"/>
		<tag k="source:date" v="2016-10-27"/>
	</node>
	<node id="-22847" lat="40.4251475" lon="-3.6810847">
		<tag k="addr:street" v="FIXME GOYA, CALLE, DE"/>
		<tag k="capacity" v="5"/>
		<tag k="amenity" v="taxi"/>
		<tag k="operator" v="Ayuntamiento de Madrid"/>
		<tag k="source" v="Ayuntamiento de Madrid"/>
		<tag k="source:date" v="2016-10-27"/>
	</node>
	<node id="-22848" lat="40.424993" lon="-3.6780422">
		<tag k="addr:street" v="FIXME GOYA, CALLE, DE"/>
		<tag k="capacity" v="4"/>
		<tag k="amenity" v="taxi"/>
		<tag k="operator" v="Ayuntamiento de Madrid"/>
		<tag k="source" v="Ayuntamiento de Madrid"/>
		<tag k="source:date" v="2016-10-27"/>
	</node>
	<node id="-22876" lat="40.4253705" lon="-3.6857017">
		<tag k="addr:street" v="FIXME GOYA, CALLE, DE"/>
		<tag k="capacity" v="5"/>
		<tag k="amenity" v="taxi"/>
		<tag k="operator" v="Ayuntamiento de Madrid"/>
		<tag k="source" v="Ayuntamiento de Madrid"/>
		<tag k="source:date" v="2016-10-27"/>
	</node>
	<node id="-22877" lat="40.4252511" lon="-3.6835856">
		<tag k="addr:street" v="FIXME GOYA, CALLE, DE"/>
		<tag k="capacity" v="7"/>
		<tag k="amenity" v="taxi"/>
		<tag k="operator" v="Ayuntamiento de Madrid"/>
		<tag k="source" v="Ayuntamiento de Madrid"/>
		<tag k="source:date" v="2016-10-27"/>
	</node>
	<node id="-22878" lat="40.4263597" lon="-3.6896828">
		<tag k="addr:street" v="FIXME CASTELLANA, PASEO, DE LA"/>
		<tag k="capacity" v="7"/>
		<tag k="amenity" v="taxi"/>
		<tag k="operator" v="Ayuntamiento de Madrid"/>
		<tag k="source" v="Ayuntamiento de Madrid"/>
		<tag k="source:date" v="2016-10-27"/>
	</node>
	<node id="-22894" lat="40.4282124" lon="-3.6872653">
		<tag k="addr:street" v="FIXME SERRANO, CALLE, DE"/>
		<tag k="capacity" v="7"/>
		<tag k="amenity" v="taxi"/>
		<tag k="operator" v="Ayuntamiento de Madrid"/>
		<tag k="source" v="Ayuntamiento de Madrid"/>
		<tag k="source:date" v="2016-10-27"/>
	</node>
	<node id="-22895" lat="40.4268364" lon="-3.6875182">
		<tag k="addr:street" v="FIXME SERRANO, CALLE, DE"/>
		<tag k="capacity" v="8"/>
		<tag k="amenity" v="taxi"/>
		<tag k="operator" v="Ayuntamiento de Madrid"/>
		<tag k="source" v="Ayuntamiento de Madrid"/>
		<tag k="source:date" v="2016-10-27"/>
	</node>
	<node id="-22896" lat="40.4258899" lon="-3.6876945">
		<tag k="addr:street" v="FIXME SERRANO, CALLE, DE"/>
		<tag k="capacity" v="7"/>
		<tag k="amenity" v="taxi"/>
		<tag k="operator" v="Ayuntamiento de Madrid"/>
		<tag k="source" v="Ayuntamiento de Madrid"/>
		<tag k="source:date" v="2016-10-27"/>
	</node>
	<node id="-22897" lat="40.4207925" lon="-3.6885498">
		<tag k="addr:street" v="FIXME SERRANO, CALLE, DE"/>
		<tag k="capacity" v="5"/>
		<tag k="amenity" v="taxi"/>
		<tag k="operator" v="Ayuntamiento de Madrid"/>
		<tag k="source" v="Ayuntamiento de Madrid"/>
		<tag k="source:date" v="2016-10-27"/>
	</node>
	<node id="-22945" lat="40.4252078" lon="-3.6824317">
		<tag k="addr:street" v="FIXME GOYA, CALLE, DE"/>
		<tag k="capacity" v="5"/>
		<tag k="amenity" v="taxi"/>
		<tag k="operator" v="Ayuntamiento de Madrid"/>
		<tag k="source" v="Ayuntamiento de Madrid"/>
		<tag k="source:date" v="2016-10-27"/>
	</node>
	<node id="-22982" lat="40.4196748" lon="-3.6791319">
		<tag k="addr:street" v="FIXME MENENDEZ PELAYO, AVENIDA, DE"/>
		<tag k="capacity" v="2"/>
		<tag k="amenity" v="taxi"/>
		<tag k="operator" v="Ayuntamiento de Madrid"/>
		<tag k="source" v="Ayuntamiento de Madrid"/>
		<tag k="source:date" v="2016-10-27"/>
	</node>
	<node id="-22983" lat="40.4265454" lon="-3.6893918">
		<tag k="addr:street" v="FIXME HERMOSILLA, CALLE, DE"/>
		<tag k="capacity" v="1"/>
		<tag k="amenity" v="taxi"/>
		<tag k="operator" v="Ayuntamiento de Madrid"/>
		<tag k="source" v="Ayuntamiento de Madrid"/>
		<tag k="source:date" v="2016-10-27"/>
	</node>
	<node id="-22991" lat="40.4212686" lon="-3.6719411">
		<tag k="addr:street" v="FIXME O&#39;DONNELL, CALLE, DE"/>
		<tag k="capacity" v="4"/>
		<tag k="amenity" v="taxi"/>
		<tag k="operator" v="Ayuntamiento de Madrid"/>
		<tag k="source" v="Ayuntamiento de Madrid"/>
		<tag k="source:date" v="2016-10-27"/>
	</node>
	<node id="-23011" lat="40.4196126" lon="-3.6729359">
		<tag k="addr:street" v="FIXME MAIQUEZ, CALLE, DE"/>
		<tag k="capacity" v="3"/>
		<tag k="amenity" v="taxi"/>
		<tag k="operator" v="Ayuntamiento de Madrid"/>
		<tag k="source" v="Ayuntamiento de Madrid"/>
		<tag k="source:date" v="2016-10-27"/>
	</node>
	<node id="-23036" lat="40.4212033" lon="-3.6759361">
		<tag k="addr:street" v="FIXME NARVAEZ, CALLE, DE"/>
		<tag k="capacity" v="4"/>
		<tag k="amenity" v="taxi"/>
		<tag k="operator" v="Ayuntamiento de Madrid"/>
		<tag k="source" v="Ayuntamiento de Madrid"/>
		<tag k="source:date" v="2016-10-27"/>
	</node>
	<node id="-23058" lat="40.4256636" lon="-3.6895421">
		<tag k="addr:street" v="FIXME GOYA, CALLE, DE"/>
		<tag k="capacity" v="4"/>
		<tag k="amenity" v="taxi"/>
		<tag k="operator" v="Ayuntamiento de Madrid"/>
		<tag k="source" v="Ayuntamiento de Madrid"/>
		<tag k="source:date" v="2016-10-27"/>
	</node>
	<node id="-23147" lat="40.4223609" lon="-3.6839557">
		<tag k="addr:street" v="FIXME VILLANUEVA, CALLE, DE"/>
		<tag k="capacity" v="5"/>
		<tag k="amenity" v="taxi"/>
		<tag k="operator" v="Ayuntamiento de Madrid"/>
		<tag k="source" v="Ayuntamiento de Madrid"/>
		<tag k="source:date" v="2016-10-27"/>
	</node>
	<node id="-23154" lat="40.4250688" lon="-3.6795413">
		<tag k="addr:street" v="FIXME GOYA, CALLE, DE"/>
		<tag k="capacity" v="4"/>
		<tag k="amenity" v="taxi"/>
		<tag k="operator" v="Ayuntamiento de Madrid"/>
		<tag k="source" v="Ayuntamiento de Madrid"/>
		<tag k="source:date" v="2016-10-27"/>
	</node>
	<node id="-23159" lat="40.422246" lon="-3.6718577">
		<tag k="addr:street" v="FIXME DUQUE DE SESTO, CALLE, DEL"/>
		<tag k="capacity" v="2"/>
		<tag k="amenity" v="taxi"/>
		<tag k="operator" v="Ayuntamiento de Madrid"/>
		<tag k="source" v="Ayuntamiento de Madrid"/>
		<tag k="source:date" v="2016-10-27"/>
	</node>
	<node id="-23165" lat="40.425011" lon="-3.6783347">
		<tag k="addr:street" v="FIXME GOYA, CALLE, DE"/>
		<tag k="capacity" v="4"/>
		<tag k="amenity" v="taxi"/>
		<tag k="operator" v="Ayuntamiento de Madrid"/>
		<tag k="source" v="Ayuntamiento de Madrid"/>
		<tag k="source:date" v="2016-10-27"/>
	</node>
	<node id="-23178" lat="40.4246575" lon="-3.6747221">
		<tag k="addr:street" v="FIXME GOYA, CALLE, DE"/>
		<tag k="capacity" v="9"/>
		<tag k="amenity" v="taxi"/>
		<tag k="operator" v="Ayuntamiento de Madrid"/>
		<tag k="source" v="Ayuntamiento de Madrid"/>
		<tag k="source:date" v="2016-10-27"/>
	</node>
	<node id="-23181" lat="40.4258354" lon="-3.6707798">
		<tag k="addr:street" v="FIXME FUENTE DEL BERRO, CALLE, DE LA"/>
		<tag k="capacity" v="3"/>
		<tag k="amenity" v="taxi"/>
		<tag k="operator" v="Ayuntamiento de Madrid"/>
		<tag k="source" v="Ayuntamiento de Madrid"/>
		<tag k="source:date" v="2016-10-27"/>
	</node>
	<node id="-23182" lat="40.4142411" lon="-3.6771842">
		<tag k="addr:street" v="FIXME MENENDEZ PELAYO, AVENIDA, DE"/>
		<tag k="capacity" v="6"/>
		<tag k="amenity" v="taxi"/>
		<tag k="operator" v="Ayuntamiento de Madrid"/>
		<tag k="source" v="Ayuntamiento de Madrid"/>
		<tag k="source:date" v="2016-10-27"/>
	</node>
	<node id="-23190" lat="40.4249327" lon="-3.6768103">
		<tag k="addr:street" v="FIXME GOYA, CALLE, DE"/>
		<tag k="capacity" v="8"/>
		<tag k="amenity" v="taxi"/>
		<tag k="operator" v="Ayuntamiento de Madrid"/>
		<tag k="source" v="Ayuntamiento de Madrid"/>
		<tag k="source:date" v="2016-10-27"/>
	</node>
	<node id="-23202" lat="40.4183606" lon="-3.6758949">
		<tag k="addr:street" v="FIXME IBIZA, CALLE, DE"/>
		<tag k="capacity" v="4"/>
		<tag k="amenity" v="taxi"/>
		<tag k="operator" v="Ayuntamiento de Madrid"/>
		<tag k="source" v="Ayuntamiento de Madrid"/>
		<tag k="source:date" v="2016-10-27"/>
	</node>
	<node id="-23205" lat="40.4201307" lon="-3.6722489">
		<tag k="addr:street" v="FIXME DOCTOR CASTELO, CALLE, DEL"/>
		<tag k="capacity" v="9"/>
		<tag k="amenity" v="taxi"/>
		<tag k="operator" v="Ayuntamiento de Madrid"/>
		<tag k="source" v="Ayuntamiento de Madrid"/>
		<tag k="source:date" v="2016-10-27"/>
	</node>
	<node id="-23208" lat="40.4279889" lon="-3.6837769">
		<tag k="addr:street" v="FIXME VELAZQUEZ, CALLE, DE"/>
		<tag k="capacity" v="8"/>
		<tag k="amenity" v="taxi"/>
		<tag k="operator" v="Ayuntamiento de Madrid"/>
		<tag k="source" v="Ayuntamiento de Madrid"/>
		<tag k="source:date" v="2016-10-27"/>
	</node>
	<node id="-23209" lat="40.4297837" lon="-3.688789">
		<tag k="addr:street" v="FIXME CASTELLANA, PASEO, DE LA"/>
		<tag k="capacity" v="8"/>
		<tag k="amenity" v="taxi"/>
		<tag k="operator" v="Ayuntamiento de Madrid"/>
		<tag k="source" v="Ayuntamiento de Madrid"/>
		<tag k="source:date" v="2016-10-27"/>
	</node>
	<node id="-23210" lat="40.4246378" lon="-3.6706767">
		<tag k="addr:street" v="FIXME GOYA, CALLE, DE"/>
		<tag k="capacity" v="3"/>
		<tag k="amenity" v="taxi"/>
		<tag k="operator" v="Ayuntamiento de Madrid"/>
		<tag k="source" v="Ayuntamiento de Madrid"/>
		<tag k="source:date" v="2016-10-27"/>
	</node>
</osm>
