<?xml version='1.0' encoding='UTF-8'?>
<osm version="0.6" generator="osmconvert 0.8">
	<bounds minlat="40.4803814" minlon="-3.6914062" maxlat="40.5137991" maxlon="-3.6474609"/>
	<node id="-22863" lat="40.5074306" lon="-3.6709913">
		<tag k="addr:street" v="FIXME CAMINO DE SANTIAGO, AVENIDA, DEL"/>
		<tag k="capacity" v="10"/>
		<tag k="opening_hours" v="Mo-Fr 08:00-20:00; PH off"/>
		<tag k="amenity" v="taxi"/>
		<tag k="operator" v="Ayuntamiento de Madrid"/>
		<tag k="source" v="Ayuntamiento de Madrid"/>
		<tag k="source:date" v="2016-10-27"/>
	</node>
	<node id="-22910" lat="40.5128598" lon="-3.6636217">
		<tag k="addr:street" v="FIXME OBRADOIRO, PLAZA, DEL"/>
		<tag k="capacity" v="4"/>
		<tag k="amenity" v="taxi"/>
		<tag k="operator" v="Ayuntamiento de Madrid"/>
		<tag k="source" v="Ayuntamiento de Madrid"/>
		<tag k="source:date" v="2016-10-27"/>
	</node>
	<node id="-22915" lat="40.5021674" lon="-3.6634179">
		<tag k="addr:street" v="FIXME ABETAL, CALLE, DEL"/>
		<tag k="capacity" v="7"/>
		<tag k="amenity" v="taxi"/>
		<tag k="operator" v="Ayuntamiento de Madrid"/>
		<tag k="source" v="Ayuntamiento de Madrid"/>
		<tag k="source:date" v="2016-10-27"/>
	</node>
	<node id="-22916" lat="40.500882" lon="-3.6624811">
		<tag k="addr:street" v="FIXME ABETAL, CALLE, DEL"/>
		<tag k="capacity" v="7"/>
		<tag k="amenity" v="taxi"/>
		<tag k="operator" v="Ayuntamiento de Madrid"/>
		<tag k="source" v="Ayuntamiento de Madrid"/>
		<tag k="source:date" v="2016-10-27"/>
	</node>
	<node id="-22917" lat="40.5005858" lon="-3.6622675">
		<tag k="addr:street" v="FIXME ABETAL, CALLE, DEL"/>
		<tag k="capacity" v="5"/>
		<tag k="amenity" v="taxi"/>
		<tag k="operator" v="Ayuntamiento de Madrid"/>
		<tag k="source" v="Ayuntamiento de Madrid"/>
		<tag k="source:date" v="2016-10-27"/>
	</node>
	<node id="-22920" lat="40.4931426" lon="-3.6752214">
		<tag k="addr:street" v="FIXME FUENCARRAL A HORTALEZA, CARRETERA, DE"/>
		<tag k="capacity" v="5"/>
		<tag k="amenity" v="taxi"/>
		<tag k="operator" v="Ayuntamiento de Madrid"/>
		<tag k="source" v="Ayuntamiento de Madrid"/>
		<tag k="source:date" v="2016-10-27"/>
	</node>
	<node id="-22929" lat="40.4924763" lon="-3.662616">
		<tag k="addr:street" v="FIXME FRANCISCO PI Y MARGALL, AVENIDA, DE"/>
		<tag k="capacity" v="7"/>
		<tag k="amenity" v="taxi"/>
		<tag k="operator" v="Ayuntamiento de Madrid"/>
		<tag k="source" v="Ayuntamiento de Madrid"/>
		<tag k="source:date" v="2016-10-27"/>
	</node>
	<node id="-22935" lat="40.4986834" lon="-3.6692099">
		<tag k="addr:street" v="FIXME QUINTANAVIDES, CALLE, DE"/>
		<tag k="capacity" v="5"/>
		<tag k="amenity" v="taxi"/>
		<tag k="operator" v="Ayuntamiento de Madrid"/>
		<tag k="source" v="Ayuntamiento de Madrid"/>
		<tag k="source:date" v="2016-10-27"/>
	</node>
	<node id="-22953" lat="40.4891919" lon="-3.6664623">
		<tag k="addr:street" v="FIXME OÑA, CALLE, DE"/>
		<tag k="capacity" v="3"/>
		<tag k="amenity" v="taxi"/>
		<tag k="operator" v="Ayuntamiento de Madrid"/>
		<tag k="source" v="Ayuntamiento de Madrid"/>
		<tag k="source:date" v="2016-10-27"/>
	</node>
	<node id="-22976" lat="40.4912823" lon="-3.6892449">
		<tag k="addr:street" v="FIXME CARDENAL HERRERA ORIA, AVENIDA, DEL"/>
		<tag k="capacity" v="3"/>
		<tag k="amenity" v="taxi"/>
		<tag k="operator" v="Ayuntamiento de Madrid"/>
		<tag k="source" v="Ayuntamiento de Madrid"/>
		<tag k="source:date" v="2016-10-27"/>
	</node>
	<node id="-22977" lat="40.4888353" lon="-3.6870303">
		<tag k="addr:street" v="FIXME VALDEGOVIA, CALLE, DE"/>
		<tag k="capacity" v="5"/>
		<tag k="amenity" v="taxi"/>
		<tag k="operator" v="Ayuntamiento de Madrid"/>
		<tag k="source" v="Ayuntamiento de Madrid"/>
		<tag k="source:date" v="2016-10-27"/>
	</node>
	<node id="-22984" lat="40.4938594" lon="-3.6576775">
		<tag k="addr:street" v="FIXME ANA DE AUSTRIA, CALLE, DE"/>
		<tag k="capacity" v="4"/>
		<tag k="opening_hours" v="Mo-Fr 09:00-19:00; PH off"/>
		<tag k="amenity" v="taxi"/>
		<tag k="operator" v="Ayuntamiento de Madrid"/>
		<tag k="source" v="Ayuntamiento de Madrid"/>
		<tag k="source:date" v="2016-10-27"/>
	</node>
	<node id="-22985" lat="40.490618" lon="-3.6555022">
		<tag k="addr:street" v="FIXME PRINCESA DE EBOLI, CALLE, DE LA"/>
		<tag k="capacity" v="3"/>
		<tag k="opening_hours" v="Mo-Fr 06:00-21:00; PH off"/>
		<tag k="amenity" v="taxi"/>
		<tag k="operator" v="Ayuntamiento de Madrid"/>
		<tag k="source" v="Ayuntamiento de Madrid"/>
		<tag k="source:date" v="2016-10-27"/>
	</node>
	<node id="-23003" lat="40.5097433" lon="-3.6792201">
		<tag k="addr:street" v="FIXME ISABEL COLBRAND, CALLE, DE"/>
		<tag k="capacity" v="7"/>
		<tag k="amenity" v="taxi"/>
		<tag k="operator" v="Ayuntamiento de Madrid"/>
		<tag k="source" v="Ayuntamiento de Madrid"/>
		<tag k="source:date" v="2016-10-27"/>
	</node>
	<node id="-23014" lat="40.4884897" lon="-3.6690279">
		<tag k="addr:street" v="FIXME OÑA, CALLE, DE"/>
		<tag k="capacity" v="2"/>
		<tag k="amenity" v="taxi"/>
		<tag k="operator" v="Ayuntamiento de Madrid"/>
		<tag k="source" v="Ayuntamiento de Madrid"/>
		<tag k="source:date" v="2016-10-27"/>
	</node>
	<node id="-23015" lat="40.4865413" lon="-3.6681653">
		<tag k="addr:street" v="FIXME MANOTERAS, AVENIDA, DE"/>
		<tag k="capacity" v="5"/>
		<tag k="amenity" v="taxi"/>
		<tag k="operator" v="Ayuntamiento de Madrid"/>
		<tag k="source" v="Ayuntamiento de Madrid"/>
		<tag k="source:date" v="2016-10-27"/>
	</node>
	<node id="-23031" lat="40.5076804" lon="-3.6706937">
		<tag k="addr:street" v="FIXME CAMINO DE SANTIAGO, AVENIDA, DEL"/>
		<tag k="capacity" v="4"/>
		<tag k="amenity" v="taxi"/>
		<tag k="operator" v="Ayuntamiento de Madrid"/>
		<tag k="source" v="Ayuntamiento de Madrid"/>
		<tag k="source:date" v="2016-10-27"/>
	</node>
	<node id="-23060" lat="40.5125944" lon="-3.6759879">
		<tag k="addr:street" v="FIXME MARIA TUBAU, CALLE, DE"/>
		<tag k="capacity" v="4"/>
		<tag k="amenity" v="taxi"/>
		<tag k="operator" v="Ayuntamiento de Madrid"/>
		<tag k="source" v="Ayuntamiento de Madrid"/>
		<tag k="source:date" v="2016-10-27"/>
	</node>
	<node id="-23066" lat="40.5114743" lon="-3.6526431">
		<tag k="addr:street" v="FIXME MEDIODIA, CARRETERA, DEL"/>
		<tag k="capacity" v="6"/>
		<tag k="amenity" v="taxi"/>
		<tag k="operator" v="Ayuntamiento de Madrid"/>
		<tag k="source" v="Ayuntamiento de Madrid"/>
		<tag k="source:date" v="2016-10-27"/>
	</node>
	<node id="-23074" lat="40.4924549" lon="-3.6869892">
		<tag k="addr:street" v="FIXME MARIANO AGÜI, CALLE, DE"/>
		<tag k="capacity" v="2"/>
		<tag k="amenity" v="taxi"/>
		<tag k="operator" v="Ayuntamiento de Madrid"/>
		<tag k="source" v="Ayuntamiento de Madrid"/>
		<tag k="source:date" v="2016-10-27"/>
	</node>
	<node id="-23075" lat="40.4895481" lon="-3.6878558">
		<tag k="addr:street" v="FIXME XAUDARO, CALLE, DE"/>
		<tag k="capacity" v="4"/>
		<tag k="amenity" v="taxi"/>
		<tag k="operator" v="Ayuntamiento de Madrid"/>
		<tag k="source" v="Ayuntamiento de Madrid"/>
		<tag k="source:date" v="2016-10-27"/>
	</node>
	<node id="-23227" lat="40.4925807" lon="-3.6870919">
		<tag k="addr:street" v="FIXME ISLAS JARVI, CALLE, DE LAS"/>
		<tag k="capacity" v="2"/>
		<tag k="opening_hours" v="Mo-Fr 08:00-20:00; PH 08:00-20:00"/>
		<tag k="amenity" v="taxi"/>
		<tag k="operator" v="Ayuntamiento de Madrid"/>
		<tag k="source" v="Ayuntamiento de Madrid"/>
		<tag k="source:date" v="2016-10-27"/>
	</node>
</osm>
