<?xml version='1.0' encoding='UTF-8'?>
<osm version="0.6" generator="osmconvert 0.8">
	<bounds minlat="40.3465441" minlon="-3.6474609" maxlat="40.3800283" maxlon="-3.6035156"/>
	<node id="-23118" lat="40.3799059" lon="-3.6216635">
		<tag k="addr:street" v="FIXME SIERRA GADOR, CALLE, DE LA"/>
		<tag k="capacity" v="1"/>
		<tag k="amenity" v="taxi"/>
		<tag k="operator" v="Ayuntamiento de Madrid"/>
		<tag k="source" v="Ayuntamiento de Madrid"/>
		<tag k="source:date" v="2016-10-27"/>
	</node>
	<node id="-23119" lat="40.3799787" lon="-3.6218369">
		<tag k="addr:street" v="FIXME SIERRA GADOR, CALLE, DE LA"/>
		<tag k="capacity" v="2"/>
		<tag k="amenity" v="taxi"/>
		<tag k="operator" v="Ayuntamiento de Madrid"/>
		<tag k="source" v="Ayuntamiento de Madrid"/>
		<tag k="source:date" v="2016-10-27"/>
	</node>
	<node id="-23137" lat="40.3797752" lon="-3.6214008">
		<tag k="addr:street" v="FIXME REAL DE ARGANDA, CALLE"/>
		<tag k="capacity" v="3"/>
		<tag k="amenity" v="taxi"/>
		<tag k="operator" v="Ayuntamiento de Madrid"/>
		<tag k="source" v="Ayuntamiento de Madrid"/>
		<tag k="source:date" v="2016-10-27"/>
	</node>
</osm>
