<?xml version='1.0' encoding='UTF-8'?>
<osm version="0.6" generator="osmconvert 0.8">
	<bounds minlat="40.3967642" minlon="-3.7353515" maxlat="40.413496" maxlon="-3.7133789"/>
	<node id="-22837" lat="40.4064046" lon="-3.7218933">
		<tag k="addr:street" v="FIXME VIRGEN DEL PUERTO, PASEO, DE LA"/>
		<tag k="capacity" v="3"/>
		<tag k="amenity" v="taxi"/>
		<tag k="operator" v="Ayuntamiento de Madrid"/>
		<tag k="source" v="Ayuntamiento de Madrid"/>
		<tag k="source:date" v="2016-10-27"/>
	</node>
	<node id="-22840" lat="40.4133976" lon="-3.7282686">
		<tag k="addr:street" v="FIXME ANTILLON, CALLE, DE"/>
		<tag k="capacity" v="2"/>
		<tag k="amenity" v="taxi"/>
		<tag k="operator" v="Ayuntamiento de Madrid"/>
		<tag k="source" v="Ayuntamiento de Madrid"/>
		<tag k="source:date" v="2016-10-27"/>
	</node>
	<node id="-23016" lat="40.3974041" lon="-3.7160231">
		<tag k="addr:street" v="FIXME MARQUES DE VADILLO, GLORIETA, DEL"/>
		<tag k="capacity" v="3"/>
		<tag k="amenity" v="taxi"/>
		<tag k="operator" v="Ayuntamiento de Madrid"/>
		<tag k="source" v="Ayuntamiento de Madrid"/>
		<tag k="source:date" v="2016-10-27"/>
	</node>
	<node id="-23056" lat="40.3985992" lon="-3.7224009">
		<tag k="addr:street" v="FIXME COMUNEROS DE CASTILLA, CALLE, DE LOS"/>
		<tag k="capacity" v="2"/>
		<tag k="amenity" v="taxi"/>
		<tag k="operator" v="Ayuntamiento de Madrid"/>
		<tag k="source" v="Ayuntamiento de Madrid"/>
		<tag k="source:date" v="2016-10-27"/>
	</node>
	<node id="-23130" lat="40.3983788" lon="-3.7348763">
		<tag k="addr:street" v="FIXME VIA CARPETANA, CALLE"/>
		<tag k="capacity" v="3"/>
		<tag k="amenity" v="taxi"/>
		<tag k="operator" v="Ayuntamiento de Madrid"/>
		<tag k="source" v="Ayuntamiento de Madrid"/>
		<tag k="source:date" v="2016-10-27"/>
	</node>
</osm>
