<?xml version='1.0' encoding='UTF-8'?>
<osm version="0.6" generator="osmconvert 0.8">
	<bounds minlat="40.446947" minlon="-3.6035156" maxlat="40.4803814" maxlon="-3.5595703"/>
	<node id="-22886" lat="40.4486134" lon="-3.5765519">
		<tag k="addr:street" v="FIXME ARAGON, AVENIDA, DE"/>
		<tag k="capacity" v="3"/>
		<tag k="opening_hours" v="Mo-Fr 06:00-19:00; PH off"/>
		<tag k="amenity" v="taxi"/>
		<tag k="operator" v="Ayuntamiento de Madrid"/>
		<tag k="source" v="Ayuntamiento de Madrid"/>
		<tag k="source:date" v="2016-10-27"/>
	</node>
	<node id="-22955" lat="40.4587039" lon="-3.5822306">
		<tag k="addr:street" v="FIXME GALEON, CALLE, DEL"/>
		<tag k="capacity" v="2"/>
		<tag k="amenity" v="taxi"/>
		<tag k="operator" v="Ayuntamiento de Madrid"/>
		<tag k="source" v="Ayuntamiento de Madrid"/>
		<tag k="source:date" v="2016-10-27"/>
	</node>
	<node id="-22961" lat="40.4479673" lon="-3.5822918">
		<tag k="addr:street" v="FIXME CAMPEZO, CALLE, DE"/>
		<tag k="capacity" v="5"/>
		<tag k="amenity" v="taxi"/>
		<tag k="operator" v="Ayuntamiento de Madrid"/>
		<tag k="source" v="Ayuntamiento de Madrid"/>
		<tag k="source:date" v="2016-10-27"/>
	</node>
	<node id="-22962" lat="40.4475618" lon="-3.5823372">
		<tag k="addr:street" v="FIXME CAMPEZO, CALLE, DE"/>
		<tag k="capacity" v="5"/>
		<tag k="amenity" v="taxi"/>
		<tag k="operator" v="Ayuntamiento de Madrid"/>
		<tag k="source" v="Ayuntamiento de Madrid"/>
		<tag k="source:date" v="2016-10-27"/>
	</node>
	<node id="-22973" lat="40.4757568" lon="-3.5820117">
		<tag k="addr:street" v="FIXME PAJARONES, CALLE, DE LOS"/>
		<tag k="capacity" v="3"/>
		<tag k="amenity" v="taxi"/>
		<tag k="operator" v="Ayuntamiento de Madrid"/>
		<tag k="source" v="Ayuntamiento de Madrid"/>
		<tag k="source:date" v="2016-10-27"/>
	</node>
	<node id="-22981" lat="40.4702468" lon="-3.5806258">
		<tag k="addr:street" v="FIXME GENERAL, AVENIDA"/>
		<tag k="capacity" v="2"/>
		<tag k="opening_hours" v="Mo-Fr 06:00-19:00; PH off"/>
		<tag k="amenity" v="taxi"/>
		<tag k="operator" v="Ayuntamiento de Madrid"/>
		<tag k="source" v="Ayuntamiento de Madrid"/>
		<tag k="source:date" v="2016-10-27"/>
	</node>
	<node id="-23090" lat="40.4511257" lon="-3.5942951">
		<tag k="addr:street" v="FIXME OBENQUE, CALLE, DEL"/>
		<tag k="capacity" v="3"/>
		<tag k="amenity" v="taxi"/>
		<tag k="operator" v="Ayuntamiento de Madrid"/>
		<tag k="source" v="Ayuntamiento de Madrid"/>
		<tag k="source:date" v="2016-10-27"/>
	</node>
	<node id="-23093" lat="40.4554472" lon="-3.5882541">
		<tag k="addr:street" v="FIXME NAVIO, PLAZA, DEL"/>
		<tag k="capacity" v="4"/>
		<tag k="amenity" v="taxi"/>
		<tag k="operator" v="Ayuntamiento de Madrid"/>
		<tag k="source" v="Ayuntamiento de Madrid"/>
		<tag k="source:date" v="2016-10-27"/>
	</node>
	<node id="-23094" lat="40.4529159" lon="-3.5881828">
		<tag k="addr:street" v="FIXME MAR, PLAZA, DEL"/>
		<tag k="capacity" v="4"/>
		<tag k="amenity" v="taxi"/>
		<tag k="operator" v="Ayuntamiento de Madrid"/>
		<tag k="source" v="Ayuntamiento de Madrid"/>
		<tag k="source:date" v="2016-10-27"/>
	</node>
	<node id="-23095" lat="40.4736917" lon="-3.5781378">
		<tag k="addr:street" v="FIXME HERMANOS FALCO Y ALVAREZ DE TOLEDO, PLAZA, DE LOS"/>
		<tag k="capacity" v="10"/>
		<tag k="amenity" v="taxi"/>
		<tag k="operator" v="Ayuntamiento de Madrid"/>
		<tag k="source" v="Ayuntamiento de Madrid"/>
		<tag k="source:date" v="2016-10-27"/>
	</node>
</osm>
