<?xml version='1.0' encoding='UTF-8'?>
<osm version="0.6" generator="osmconvert 0.8">
	<bounds minlat="40.3800283" minlon="-3.7353515" maxlat="40.3967642" maxlon="-3.7133789"/>
	<node id="-22835" lat="40.3886239" lon="-3.7322058">
		<tag k="addr:street" v="FIXME OCA, CALLE, DE LA"/>
		<tag k="capacity" v="2"/>
		<tag k="opening_hours" v="Mo-Fr 08:00-20:00; PH off"/>
		<tag k="amenity" v="taxi"/>
		<tag k="operator" v="Ayuntamiento de Madrid"/>
		<tag k="source" v="Ayuntamiento de Madrid"/>
		<tag k="source:date" v="2016-10-27"/>
	</node>
	<node id="-22907" lat="40.3853969" lon="-3.7239269">
		<tag k="addr:street" v="FIXME OPORTO, AVENIDA, DE"/>
		<tag k="capacity" v="4"/>
		<tag k="amenity" v="taxi"/>
		<tag k="operator" v="Ayuntamiento de Madrid"/>
		<tag k="source" v="Ayuntamiento de Madrid"/>
		<tag k="source:date" v="2016-10-27"/>
	</node>
	<node id="-23013" lat="40.3885837" lon="-3.7321087">
		<tag k="addr:street" v="FIXME OCA, CALLE, DE LA"/>
		<tag k="capacity" v="2"/>
		<tag k="amenity" v="taxi"/>
		<tag k="operator" v="Ayuntamiento de Madrid"/>
		<tag k="source" v="Ayuntamiento de Madrid"/>
		<tag k="source:date" v="2016-10-27"/>
	</node>
	<node id="-23125" lat="40.384012" lon="-3.7307377">
		<tag k="addr:street" v="FIXME TARIFA, PLAZA, DE"/>
		<tag k="capacity" v="2"/>
		<tag k="amenity" v="taxi"/>
		<tag k="operator" v="Ayuntamiento de Madrid"/>
		<tag k="source" v="Ayuntamiento de Madrid"/>
		<tag k="source:date" v="2016-10-27"/>
	</node>
	<node id="-23126" lat="40.3855932" lon="-3.71771">
		<tag k="addr:street" v="FIXME FERNANDEZ LADREDA, PLAZA, DE"/>
		<tag k="capacity" v="4"/>
		<tag k="amenity" v="taxi"/>
		<tag k="operator" v="Ayuntamiento de Madrid"/>
		<tag k="source" v="Ayuntamiento de Madrid"/>
		<tag k="source:date" v="2016-10-27"/>
	</node>
</osm>
