<?xml version='1.0' encoding='UTF-8'?>
<osm version="0.6" generator="osmconvert 0.8">
	<bounds minlat="40.3800283" minlon="-3.7133789" maxlat="40.3967642" maxlon="-3.6914062"/>
	<node id="-23043" lat="40.3940023" lon="-3.7076234">
		<tag k="addr:street" v="FIXME ANTONIO LOPEZ, CALLE, DE"/>
		<tag k="capacity" v="3"/>
		<tag k="amenity" v="taxi"/>
		<tag k="operator" v="Ayuntamiento de Madrid"/>
		<tag k="source" v="Ayuntamiento de Madrid"/>
		<tag k="source:date" v="2016-10-27"/>
	</node>
	<node id="-23046" lat="40.3914115" lon="-3.6947481">
		<tag k="addr:street" v="FIXME LEGAZPI, PLAZA, DE"/>
		<tag k="capacity" v="10"/>
		<tag k="amenity" v="taxi"/>
		<tag k="operator" v="Ayuntamiento de Madrid"/>
		<tag k="source" v="Ayuntamiento de Madrid"/>
		<tag k="source:date" v="2016-10-27"/>
	</node>
	<node id="-23149" lat="40.3883838" lon="-3.6998815">
		<tag k="addr:street" v="FIXME ANTONIO LOPEZ, CALLE, DE"/>
		<tag k="capacity" v="2"/>
		<tag k="amenity" v="taxi"/>
		<tag k="operator" v="Ayuntamiento de Madrid"/>
		<tag k="source" v="Ayuntamiento de Madrid"/>
		<tag k="source:date" v="2016-10-27"/>
	</node>
</osm>
