<?xml version='1.0' encoding='UTF-8'?>
<osm version="0.6" generator="osmconvert 0.8">
	<bounds minlat="40.3465441" minlon="-3.7792968" maxlat="40.3800283" maxlon="-3.7353515"/>
	<node id="-22978" lat="40.3724735" lon="-3.7473116">
		<tag k="addr:street" v="FIXME GUAYABA, CALLE, DE LA"/>
		<tag k="capacity" v="7"/>
		<tag k="amenity" v="taxi"/>
		<tag k="operator" v="Ayuntamiento de Madrid"/>
		<tag k="source" v="Ayuntamiento de Madrid"/>
		<tag k="source:date" v="2016-10-27"/>
	</node>
	<node id="-23005" lat="40.3792493" lon="-3.7700161">
		<tag k="addr:street" v="FIXME JOSE DE CADALSO, CALLE, DE"/>
		<tag k="capacity" v="3"/>
		<tag k="amenity" v="taxi"/>
		<tag k="operator" v="Ayuntamiento de Madrid"/>
		<tag k="source" v="Ayuntamiento de Madrid"/>
		<tag k="source:date" v="2016-10-27"/>
	</node>
	<node id="-23028" lat="40.3635369" lon="-3.7400902">
		<tag k="addr:street" v="FIXME CALDERILLA, CALLE, DE LA"/>
		<tag k="capacity" v="4"/>
		<tag k="amenity" v="taxi"/>
		<tag k="operator" v="Ayuntamiento de Madrid"/>
		<tag k="source" v="Ayuntamiento de Madrid"/>
		<tag k="source:date" v="2016-10-27"/>
	</node>
	<node id="-23061" lat="40.3623565" lon="-3.753239">
		<tag k="addr:street" v="FIXME PESETA, AVENIDA, DE LA"/>
		<tag k="capacity" v="2"/>
		<tag k="opening_hours" v="Mo-Fr 06:00-16:00; PH off"/>
		<tag k="amenity" v="taxi"/>
		<tag k="operator" v="Ayuntamiento de Madrid"/>
		<tag k="source" v="Ayuntamiento de Madrid"/>
		<tag k="source:date" v="2016-10-27"/>
	</node>
	<node id="-23127" lat="40.3775235" lon="-3.7721865">
		<tag k="addr:street" v="FIXME GENERAL ROMERO BASART, CALLE, DEL"/>
		<tag k="capacity" v="2"/>
		<tag k="amenity" v="taxi"/>
		<tag k="operator" v="Ayuntamiento de Madrid"/>
		<tag k="source" v="Ayuntamiento de Madrid"/>
		<tag k="source:date" v="2016-10-27"/>
	</node>
	<node id="-23233" lat="40.3721164" lon="-3.7591771">
		<tag k="addr:street" v="FIXME JOAQUIN TURINA, CALLE, DE"/>
		<tag k="capacity" v="3"/>
		<tag k="amenity" v="taxi"/>
		<tag k="operator" v="Ayuntamiento de Madrid"/>
		<tag k="source" v="Ayuntamiento de Madrid"/>
		<tag k="source:date" v="2016-10-27"/>
	</node>
</osm>
