<?xml version='1.0' encoding='UTF-8'?>
<osm version="0.6" generator="osmconvert 0.8">
	<bounds minlat="40.4302236" minlon="-3.6914062" maxlat="40.446947" maxlon="-3.6694335"/>
	<node id="-22815" lat="40.4439044" lon="-3.6749332">
		<tag k="addr:street" v="FIXME SUERO DE QUIÃ‘ONES, CALLE, DE"/>
		<tag k="capacity" v="4"/>
		<tag k="amenity" v="taxi"/>
		<tag k="operator" v="Ayuntamiento de Madrid"/>
		<tag k="source" v="Ayuntamiento de Madrid"/>
		<tag k="source:date" v="2016-10-27"/>
	</node>
	<node id="-22818" lat="40.4334677" lon="-3.6756827">
		<tag k="addr:street" v="FIXME MALDONADO, CALLE, DE"/>
		<tag k="capacity" v="3"/>
		<tag k="amenity" v="taxi"/>
		<tag k="operator" v="Ayuntamiento de Madrid"/>
		<tag k="source" v="Ayuntamiento de Madrid"/>
		<tag k="source:date" v="2016-10-27"/>
	</node>
	<node id="-22849" lat="40.4457183" lon="-3.6907732">
		<tag k="addr:street" v="FIXME CASTELLANA, PASEO, DE LA"/>
		<tag k="capacity" v="8"/>
		<tag k="amenity" v="taxi"/>
		<tag k="operator" v="Ayuntamiento de Madrid"/>
		<tag k="source" v="Ayuntamiento de Madrid"/>
		<tag k="source:date" v="2016-10-27"/>
	</node>
	<node id="-22867" lat="40.4325913" lon="-3.6762398">
		<tag k="addr:street" v="FIXME JUAN BRAVO, CALLE, DE"/>
		<tag k="capacity" v="4"/>
		<tag k="amenity" v="taxi"/>
		<tag k="operator" v="Ayuntamiento de Madrid"/>
		<tag k="source" v="Ayuntamiento de Madrid"/>
		<tag k="source:date" v="2016-10-27"/>
	</node>
	<node id="-22871" lat="40.43265" lon="-3.6774542">
		<tag k="addr:street" v="FIXME JUAN BRAVO, CALLE, DE"/>
		<tag k="capacity" v="9"/>
		<tag k="amenity" v="taxi"/>
		<tag k="operator" v="Ayuntamiento de Madrid"/>
		<tag k="source" v="Ayuntamiento de Madrid"/>
		<tag k="source:date" v="2016-10-27"/>
	</node>
	<node id="-22872" lat="40.4389537" lon="-3.6726898">
		<tag k="addr:street" v="FIXME AMERICA, AVENIDA, DE"/>
		<tag k="capacity" v="2"/>
		<tag k="amenity" v="taxi"/>
		<tag k="operator" v="Ayuntamiento de Madrid"/>
		<tag k="source" v="Ayuntamiento de Madrid"/>
		<tag k="source:date" v="2016-10-27"/>
	</node>
	<node id="-22888" lat="40.4321155" lon="-3.6867109">
		<tag k="addr:street" v="FIXME SERRANO, CALLE, DE"/>
		<tag k="capacity" v="4"/>
		<tag k="amenity" v="taxi"/>
		<tag k="operator" v="Ayuntamiento de Madrid"/>
		<tag k="source" v="Ayuntamiento de Madrid"/>
		<tag k="source:date" v="2016-10-27"/>
	</node>
	<node id="-22900" lat="40.4382247" lon="-3.6757137">
		<tag k="addr:street" v="FIXME A-2, AUTOVIA"/>
		<tag k="capacity" v="5"/>
		<tag k="amenity" v="taxi"/>
		<tag k="operator" v="Ayuntamiento de Madrid"/>
		<tag k="source" v="Ayuntamiento de Madrid"/>
		<tag k="source:date" v="2016-10-27"/>
	</node>
	<node id="-22901" lat="40.438082" lon="-3.67681">
		<tag k="addr:street" v="FIXME AMERICA, AVENIDA, DE"/>
		<tag k="capacity" v="22"/>
		<tag k="amenity" v="taxi"/>
		<tag k="operator" v="Ayuntamiento de Madrid"/>
		<tag k="source" v="Ayuntamiento de Madrid"/>
		<tag k="source:date" v="2016-10-27"/>
	</node>
	<node id="-22902" lat="40.4384138" lon="-3.6763046">
		<tag k="addr:street" v="FIXME AMERICA, AVENIDA, DE"/>
		<tag k="capacity" v="3"/>
		<tag k="amenity" v="taxi"/>
		<tag k="operator" v="Ayuntamiento de Madrid"/>
		<tag k="source" v="Ayuntamiento de Madrid"/>
		<tag k="source:date" v="2016-10-27"/>
	</node>
	<node id="-22946" lat="40.4327374" lon="-3.6880269">
		<tag k="addr:street" v="FIXME CASTELLANA, PASEO, DE LA"/>
		<tag k="capacity" v="5"/>
		<tag k="amenity" v="taxi"/>
		<tag k="operator" v="Ayuntamiento de Madrid"/>
		<tag k="source" v="Ayuntamiento de Madrid"/>
		<tag k="source:date" v="2016-10-27"/>
	</node>
	<node id="-22956" lat="40.441172" lon="-3.6785736">
		<tag k="addr:street" v="FIXME PRINCIPE DE VERGARA, CALLE, DEL"/>
		<tag k="capacity" v="2"/>
		<tag k="amenity" v="taxi"/>
		<tag k="operator" v="Ayuntamiento de Madrid"/>
		<tag k="source" v="Ayuntamiento de Madrid"/>
		<tag k="source:date" v="2016-10-27"/>
	</node>
	<node id="-23055" lat="40.4325438" lon="-3.6889892">
		<tag k="addr:street" v="FIXME CASTELLANA, PASEO, DE LA"/>
		<tag k="capacity" v="2"/>
		<tag k="amenity" v="taxi"/>
		<tag k="operator" v="Ayuntamiento de Madrid"/>
		<tag k="source" v="Ayuntamiento de Madrid"/>
		<tag k="source:date" v="2016-10-27"/>
	</node>
	<node id="-23065" lat="40.4370487" lon="-3.6905775">
		<tag k="addr:street" v="FIXME CASTELLANA, PASEO, DE LA"/>
		<tag k="capacity" v="5"/>
		<tag k="amenity" v="taxi"/>
		<tag k="operator" v="Ayuntamiento de Madrid"/>
		<tag k="source" v="Ayuntamiento de Madrid"/>
		<tag k="source:date" v="2016-10-27"/>
	</node>
	<node id="-23133" lat="40.4303392" lon="-3.6830743">
		<tag k="addr:street" v="FIXME JOSE ORTEGA Y GASSET, CALLE, DE"/>
		<tag k="capacity" v="9"/>
		<tag k="amenity" v="taxi"/>
		<tag k="operator" v="Ayuntamiento de Madrid"/>
		<tag k="source" v="Ayuntamiento de Madrid"/>
		<tag k="source:date" v="2016-10-27"/>
	</node>
	<node id="-23142" lat="40.4330698" lon="-3.687955">
		<tag k="addr:street" v="FIXME CASTELLANA, PASEO, DE LA"/>
		<tag k="capacity" v="6"/>
		<tag k="amenity" v="taxi"/>
		<tag k="operator" v="Ayuntamiento de Madrid"/>
		<tag k="source" v="Ayuntamiento de Madrid"/>
		<tag k="source:date" v="2016-10-27"/>
	</node>
	<node id="-23167" lat="40.4380298" lon="-3.6725091">
		<tag k="addr:street" v="FIXME CARTAGENA, CALLE, DE"/>
		<tag k="capacity" v="3"/>
		<tag k="amenity" v="taxi"/>
		<tag k="operator" v="Ayuntamiento de Madrid"/>
		<tag k="source" v="Ayuntamiento de Madrid"/>
		<tag k="source:date" v="2016-10-27"/>
	</node>
	<node id="-23169" lat="40.4427471" lon="-3.6696425">
		<tag k="addr:street" v="FIXME CLARA DEL REY, CALLE, DE"/>
		<tag k="capacity" v="5"/>
		<tag k="amenity" v="taxi"/>
		<tag k="operator" v="Ayuntamiento de Madrid"/>
		<tag k="source" v="Ayuntamiento de Madrid"/>
		<tag k="source:date" v="2016-10-27"/>
	</node>
	<node id="-23179" lat="40.4344606" lon="-3.6752822">
		<tag k="addr:street" v="FIXME DIEGO DE LEON, CALLE, DE"/>
		<tag k="capacity" v="4"/>
		<tag k="amenity" v="taxi"/>
		<tag k="operator" v="Ayuntamiento de Madrid"/>
		<tag k="source" v="Ayuntamiento de Madrid"/>
		<tag k="source:date" v="2016-10-27"/>
	</node>
	<node id="-23207" lat="40.4353363" lon="-3.6854519">
		<tag k="addr:street" v="FIXME CLAUDIO COELLO, CALLE, DE"/>
		<tag k="capacity" v="5"/>
		<tag k="amenity" v="taxi"/>
		<tag k="operator" v="Ayuntamiento de Madrid"/>
		<tag k="source" v="Ayuntamiento de Madrid"/>
		<tag k="source:date" v="2016-10-27"/>
	</node>
	<node id="-23215" lat="40.4408054" lon="-3.6804878">
		<tag k="addr:street" v="FIXME LOPEZ DE HOYOS, GLORIETA, DE"/>
		<tag k="capacity" v="3"/>
		<tag k="amenity" v="taxi"/>
		<tag k="operator" v="Ayuntamiento de Madrid"/>
		<tag k="source" v="Ayuntamiento de Madrid"/>
		<tag k="source:date" v="2016-10-27"/>
	</node>
	<node id="-23224" lat="40.4367602" lon="-3.690376">
		<tag k="addr:street" v="FIXME CASTELLANA, PASEO, DE LA"/>
		<tag k="capacity" v="8"/>
		<tag k="amenity" v="taxi"/>
		<tag k="operator" v="Ayuntamiento de Madrid"/>
		<tag k="source" v="Ayuntamiento de Madrid"/>
		<tag k="source:date" v="2016-10-27"/>
	</node>
</osm>
