<?xml version='1.0' encoding='UTF-8'?>
<osm version="0.6" generator="osmconvert 0.8">
	<bounds minlat="40.413496" minlon="-3.6694335" maxlat="40.4302236" maxlon="-3.6474609"/>
	<node id="-363" lat="40.4244503" lon="-3.6540205">
		<tag k="addr:city" v="Madrid"/>
		<tag k="addr:district" v="Ciudad Lineal"/>
		<tag k="addr:housenumber" v="27"/>
		<tag k="addr:postcode" v="28017"/>
		<tag k="addr:province" v="Madrid"/>
		<tag k="addr:street" v="Avenida FIXME Marques De Corbera"/>
		<tag k="addr:suburb" v="Ventas"/>
		<tag k="amenity" v="post_office"/>
		<tag k="email" v="suc37.madrid@correos.com"/>
		<tag k="name" v="Correos"/>
		<tag k="opening_hours" v="Mo-Fr 08:30-20:30; Sa 09:30-13:00; Aug Mo-Fr 08:30-14:30; Aug Sa 09:30-13:00; PH off; Dec 24, Dec 25, Jan 1, Jan 6 off"/>
		<tag k="operator" v="Correos"/>
		<tag k="phone" v="+34 902197197"/>
		<tag k="ref" v="37"/>
		<tag k="source" v="Ayuntamiento de Madrid"/>
		<tag k="source:date" v="2016-09-26"/>
		<tag k="url" v="https://www.correos.es"/>
	</node>
</osm>
